 2020  1 1 19 1 54.9 LQ 40.820  28.930 13.1      17 0.1 2.1L                   1
 2020  1 1 19 1 54.900  40.81970   28.93030   13.100  0.150                    H
 GAP=88                                                                        E
 Action:ARG 24-11-28 15:26 OP:OBSP STATUS:               ID:20200101190154     I
 GSE2.0:evtype=ke                                                              3
 STAT SP IPHASW D HRMM SECON CODA AMPLIT PERI AZIMU VELO AIN AR TRES W  DIS CAZ7
 BRGA     IAML    19 158.800         8.6                                        
 BRGA     IAML    19 2 1.000         8.6                                        
 HYBA     IAML    19 158.800         8.6                                        
 HYBA     IAML    19 2 1.200         8.6                                        
 BUYA     IAML    19 159.100         8.6                                        
 TUZL     IAML    19 2 0.600         8.6                                        
 ARMT     IAML    19 2 0.900         8.6                                        
 ARMT     IAML    19 2 4.800         8.6                                        
 HVHR     IAML    19 2 0.600         8.6                                        
 KAVV     IAML    19 2 0.900         8.6                                        
 KAVV     IAML    19 2 4.900         8.6                                        
 LAFA     IAML    19 2 1.900         8.6                                        
 YLV      IAML    19 2 3.700         8.6                                        
 KLYT     IAML    19 2 4.200         8.6                                        
 MDNY     IAML    19 2 4.100         8.6                                        
 HRTX     IAML    19 2 6.100         8.6                                        
 SILT     IAML    19 2 7.700         8.6                                        
 SLVT     IAML    19 2 8.700         8.6                                        
 KCTX     IAML    19 2 9.200         8.6                                        
 ADVT     IAML    19 2 9.400         8.6                                        
 CAVI     IAML    19 213.100         8.6                                        
                                                                                

 2020  1 2  457 48.5 LQ 40.635  29.132  7.0      26 0.1 2.0L                   1
 2020  1 2  457 48.500  40.63530   29.13170    7.000  0.110                    H
 GAP=39                                                                        E
 Action:ARG 24-11-28 15:26 OP:OBSP STATUS:               ID:20200102045748     I
 GSE2.0:evtype=ke                                                              3
 STAT SP IPHASW D HRMM SECON CODA AMPLIT PERI AZIMU VELO AIN AR TRES W  DIS CAZ7
 TUZL     IAML     45753.400         0.4                                        
 TUZL     IAML     45756.700         0.4                                        
 LAFA     IAML     45753.300         0.4                                        
 LAFA     IAML     45756.800         0.4                                        
 ARMT     IAML     45753.400         0.4                                        
 ARMT     IAML     45756.900         0.4                                        
 BUYA     IAML     45753.700         0.4                                        
 BUYA     IAML     45757.500         0.4                                        
 HYBA     IAML     45753.900         0.4                                        
 HYBA     IAML     45757.800         0.4                                        
 BRGA     IAML     45754.100         0.4                                        
 BRGA     IAML     45758.100         0.4                                        
 MDNY     IAML     45755.400         0.4                                        
 KAVV     IAML     45757.100         0.4                                        
 OSMT     IAML     45757.500         0.4                                        
 HRTX     IAML     45757.500         0.4                                        
 ADVT     IAML     45758.800         0.4                                        
 ADVT     IAML     458 5.800         0.4                                        
 BGKT     IAML     458 0.800         0.4                                        
 ORLT     IAML     458 0.900         0.4                                        
 SILT     IAML     458 1.400         0.4                                        
 CAVI     IAML     458 2.400         0.4                                        
 KCTX     IAML     458 2.400         0.4                                        
 CTKS     IAML     458 3.100         0.4                                        
 SLVT     IAML     458 6.600         0.4                                        
 EDC      IAML     458 8.300         0.4                                        
 GULT     IAML     458 9.600         0.4                                        
 CRLT     IAML     45811.200         0.4                                        
 TVSB     IAML     45812.100         0.4                                        
 GONE     IAML     45812.800         0.4                                        
 UVEZ     IAML     45814.800         0.4                                        
 GAZK     IAML     45814.800         0.4                                        
 SIMA     IAML     45817.300         0.4                                        
                                                                                

 2020  1 2 1118 40.9 LQ 40.831  28.347  7.5      52 0.3 2.9L                   1
 2020  1 2 1118 40.900  40.83080   28.34700    7.500  0.280                    H
 GAP=24                                                                        E
 Action:ARG 24-11-28 15:26 OP:OBSP STATUS:               ID:20200102111840     I
 GSE2.0:evtype=ke                                                              3
 STAT SP IPHASW D HRMM SECON CODA AMPLIT PERI AZIMU VELO AIN AR TRES W  DIS CAZ7
 SINB     IAML    111846.500        17.9                                        
 YKBL     IAML    111847.700        17.9                                        
 BOTS     IAML    111847.700        17.9                                        
 AVCI     IAML    111847.900        17.9                                        
 AVCI     IAML    111853.300        17.9                                        
 SLVT     IAML    111849.400        17.9                                        
 CTKS     IAML    111849.500        17.9                                        
 ARMT     IAML    111850.800        17.9                                        
 BGKT     IAML    111850.400        17.9                                        
 BRGA     IAML    111851.800        17.9                                        
 HYBA     IAML    111852.100        17.9                                        
 KCTX     IAML    111852.300        17.9                                        
 KAVV     IAML    111851.800        17.9                                        
 BUYA     IAML    111852.600        17.9                                        
 MDNY     IAML    111853.200        17.9                                        
 MRMT     IAML    111853.400        17.9                                        
 CTYL     IAML    111854.000        17.9                                        
 KLYT     IAML    111853.900        17.9                                        
 TUZL     IAML    111854.700        17.9                                        
 LAFA     IAML    111856.200        17.9                                        
 GAZK     IAML    111856.400        17.9                                        
 ORLT     IAML    111858.500        17.9                                        
 SUSR     IAML    111858.400        17.9                                        
 RKY      IAML    111858.500        17.9                                        
 KRBG     IAML    111858.500        17.9                                        
 GONE     IAML    111859.400        17.9                                        
 HRTX     IAML    111859.800        17.9                                        
 PHSR     IAML    1119 0.000        17.9                                        
 SILT     IAML    1119 0.400        17.9                                        
 OSMT     IAML    1119 1.500        17.9                                        
 BIGA     IAML    1119 1.700        17.9                                        
 ADVT     IAML    1119 2.500        17.9                                        
 YENI     IAML    1119 4.700        17.9                                        
 BALB     IAML    1119 4.900        17.9                                        
 DST      IAML    1119 4.900        17.9                                        
 CANM     IAML    1119 5.500        17.9                                        
 LAP      IAML    1119 5.500        17.9                                        
 CAVI     IAML    1119 5.700        17.9                                        
 UKOP     IAML    1119 6.200        17.9                                        
 ERIK     IAML    1119 6.200        17.9                                        
 GELI     IAML    1119 8.500        17.9                                        
 SAUV     IAML    1119 8.600        17.9                                        
 YAYO     IAML    1119 9.500        17.9                                        
 EDRB     IAML    1119 9.300        17.9                                        
 TVSB     IAML    111910.300        17.9                                        
 ENEZ     IAML    111911.100        17.9                                        
 GULT     IAML    111911.500        17.9                                        
 ALN      IAML    111911.900         0.2                                        
 SIMA     IAML    111912.800        17.9                                        
 EZN      IAML    111914.300        17.9                                        
 GORD     IAML    111914.700        17.9                                        
 UVEZ     IAML    111914.800        17.9                                        
 BOZC     IAML    111915.900         0.2                                        
                                                                                

 2020  1 2 1858 53.2 LQ 40.700  29.207 16.4       8 0.1 1.8L                   1
 2020  1 2 1858 53.200  40.70020   29.20730   16.400  0.080                    H
 GAP=107                                                                       E
 Action:ARG 24-11-28 15:26 OP:OBSP STATUS:               ID:20200102185853     I
 GSE2.0:evtype=ke                                                              3
 STAT SP IPHASW D HRMM SECON CODA AMPLIT PERI AZIMU VELO AIN AR TRES W  DIS CAZ7
 LAFA     IAML    185857.200         3.7                                        
 LAFA     IAML    1859 0.200         3.7                                        
 ARMT     IAML    185859.800         3.7                                        
 ARMT     IAML    1859 4.500         3.7                                        
 HRTX     IAML    1859 1.100         3.7                                        
 HRTX     IAML    1859 6.800         3.7                                        
 KAVV     IAML    1859 1.400         3.7                                        
 KAVV     IAML    1859 7.400         3.7                                        
 ADVT     IAML    1859 3.300         3.7                                        
 CAVI     IAML    1859 7.300         3.7                                        
 SAUV     IAML    185910.100         3.7                                        
 GULT     IAML    185913.500         3.7                                        
                                                                                

 2020  1 3  039 11.7 LQ 40.882  28.226 10.0      27 0.1 1.6L                   1
 2020  1 3  039 11.700  40.88200   28.22620   10.000  0.110                    H
 GAP=47                                                                        E
 Action:ARG 24-11-28 15:26 OP:OBSP STATUS:               ID:20200103003911     I
 GSE2.0:evtype=ke                                                              3
 STAT SP IPHASW D HRMM SECON CODA AMPLIT PERI AZIMU VELO AIN AR TRES W  DIS CAZ7
 BOTS     IAML     03916.700         0.2                                        
 BOTS     IAML     03920.300         0.2                                        
 SINB     IAML     03917.600         0.2                                        
 SLVT     IAML     03919.300         0.2                                        
 SLVT     IAML     03924.400         0.2                                        
 AVCI     IAML     03919.900         0.2                                        
 CTKS     IAML     03920.300         0.2                                        
 BGKT     IAML     03922.000         0.2                                        
 BGKT     IAML     03929.800         0.2                                        
 TKR      IAML     03922.600         0.2                                        
 ARMT     IAML     03923.500         0.2                                        
 ARMT     IAML     03931.800         0.2                                        
 CTYL     IAML     03923.800         0.2                                        
 KCTX     IAML     03924.400         0.2                                        
 BRGA     IAML     03924.300         0.2                                        
 BRGA     IAML     03933.800         0.2                                        
 HYBA     IAML     03924.800         0.2                                        
 KAVV     IAML     03924.900         0.2                                        
 MDNY     IAML     03926.200         0.2                                        
 KLYT     IAML     03925.900         0.2                                        
 KRBG     IAML     03928.600         0.2                                        
 GONE     IAML     03930.000         0.2                                        
 HRTX     IAML     03933.200         0.2                                        
 SILT     IAML     03933.300         0.2                                        
 YENI     IAML     03934.900         0.2                                        
 UKOP     IAML     03935.100         0.2                                        
 ADVT     IAML     03935.500         0.2                                        
 CANM     IAML     03935.300         0.2                                        
 ERIK     IAML     03936.500         0.2                                        
 GELI     IAML     03938.100         0.2                                        
 EDRB     IAML     03938.500         0.2                                        
 ALN      IAML     03941.400         0.0                                        
                                                                                

 2020  1 3 1451 44.9 LQ 40.822  27.947 14.0      20 0.2 1.9L                   1
 2020  1 3 1451 44.900  40.82230   27.94670   14.000  0.250                    H
 GAP=63                                                                        E
 Action:ARG 24-11-28 15:26 OP:OBSP STATUS:               ID:20200103145144     I
 GSE2.0:evtype=ke                                                              3
 STAT SP IPHASW D HRMM SECON CODA AMPLIT PERI AZIMU VELO AIN AR TRES W  DIS CAZ7
 BOTS     IAML    145149.300         0.5                                        
 BOTS     IAML    145152.300         0.5                                        
 CRLT     IAML    145152.600         0.5                                        
 CRLT     IAML    145157.800         0.5                                        
 MRMT     IAML    145152.300         0.5                                        
 MRMT     IAML    145157.300         0.5                                        
 SLVT     IAML    145154.300         0.5                                        
 SLVT     IAML    1452 1.400         0.5                                        
 GAZK     IAML    145155.100         0.5                                        
 CTKS     IAML    145157.100         0.5                                        
 KRBG     IAML    145158.000         0.5                                        
 CTYL     IAML    145158.200         0.5                                        
 BGKT     IAML    145159.100         0.5                                        
 ARMT     IAML    1452 0.000         0.5                                        
 GONE     IAML    1452 1.200         0.5                                        
 BIGA     IAML    1452 0.500         0.5                                        
 SUSR     IAML    1452 2.200         0.5                                        
 PHSR     IAML    1452 1.600         0.5                                        
 KAVV     IAML    1452 2.100         0.5                                        
 KLYT     IAML    1452 3.200         0.5                                        
 UKOP     IAML    1452 5.500         0.5                                        
 HRTX     IAML    1452 9.100         0.5                                        
 SILT     IAML    1452 9.200         0.5                                        
 EDRB     IAML    1452 9.900         0.5                                        
                                                                                

