 2020  1 8  851 20.0 LQ 40.653  29.110  9.9      16 0.2 1.6L                   1
 2020  1 8  851 20.0    40.65320   29.11030    9.900  0.190                    H
 GAP=104                                                                       E
 Action:ARG 24-11-28 15:26 OP:OBSP STATUS:               ID:20200108085120     I
 GSE2.0:evtype=ke                                                              3
 STAT SP IPHASW D HRMM SECON CODA AMPLIT PERI AZIMU VELO AIN AR TRES W  DIS CAZ7
 TUZL     IAML     85124.900         0.2                                        
 TUZL     IAML     85128.200         0.2                                        
 BUYA     IAML     85124.900         0.2                                        
 HYBA     IAML     85125.100         0.2                                        
 BRGA     IAML     85125.100         0.2                                        
 MDNY     IAML     85127.300         0.2                                        
 MDNY     IAML     85132.200         0.2                                        
 KAVV     IAML     85128.400         0.2                                        
 KAVV     IAML     85134.700         0.2                                        
 OSMT     IAML     85129.300         0.2                                        
 HRTX     IAML     85128.900         0.2                                        
 HVHR     IAML     85129.500         0.2                                        
 ADVT     IAML     85130.600         0.2                                        
 BGKT     IAML     85132.000         0.2                                        
 BGKT     IAML     85140.700         0.2                                        
 ORLT     IAML     85132.100         0.2                                        
 CAVI     IAML     85134.200         0.2                                        
 GPA      IAML     85139.800         0.2                                        
 GULT     IAML     85141.600         0.2                                        
 GULT     IAML     85156.900         0.2                                        
 UVEZ     IAML     85145.900         0.2                                        
                                                                                

 2020  111  328  2.4 LQ 40.704  27.417  9.4      25 0.1 1.6L                   1
 2020  111  328  2.400  40.70420   27.41730    9.400  0.120                    H
 GAP=41                                                                        E
 Action:ARG 24-11-28 15:26 OP:OBSP STATUS:               ID:20200111032802     I
 GSE2.0:evtype=ke                                                              3
 STAT SP IPHASW D HRMM SECON CODA AMPLIT PERI AZIMU VELO AIN AR TRES W  DIS CAZ7
 GAZK     IAML     328 4.900         6.0                                        
 GAZK     IAML     328 7.100         6.0                                        
 MRMT     IAML     328 6.200         6.0                                        
 MRMT     IAML     328 9.100         6.0                                        
 RKY      IAML     328 6.700         6.0                                        
 RKY      IAML     328 9.800         6.0                                        
 TKR      IAML     328 8.800         6.0                                        
 KRBG     IAML     328 9.400         6.0                                        
 KRBG     IAML     32814.400         6.0                                        
 BIGA     IAML     32812.100         6.0                                        
 EDC      IAML     32812.500         6.0                                        
 GONE     IAML     32816.400         6.0                                        
 ERIK     IAML     32816.200         6.0                                        
 UKOP     IAML     32817.100         6.0                                        
 CANM     IAML     32817.100         6.0                                        
 YENI     IAML     32817.900         6.0                                        
 GELI     IAML     32817.800         6.0                                        
 SLVT     IAML     32818.300         6.0                                        
 SUSR     IAML     32820.300         6.0                                        
 ENEZ     IAML     32821.000         6.0                                        
 ALN      IAML     32823.200         0.0                                        
 ARMT     IAML     32824.200         6.0                                        
 YAYO     IAML     32824.400         6.0                                        
 BGKT     IAML     32824.300         6.0                                        
 MDNY     IAML     32825.100         6.0                                        
 EDRB     IAML     32825.900         6.0                                        
 GADA     IAML     32826.600         6.0                                        
 BOZC     IAML     32827.800         0.0                                        
 RDO      IAML     32829.800         0.0                                        
                                                                                

 2020  111  328 57.8 LQ 40.718  27.426  9.2      27 0.2 1.7L                   1
 2020  111  328 57.800  40.71850   27.42570    9.200  0.210                    H
 GAP=42                                                                        E
 Action:ARG 24-11-28 15:26 OP:OBSP STATUS:               ID:20200111032857     I
 GSE2.0:evtype=ke                                                              3
 STAT SP IPHASW D HRMM SECON CODA AMPLIT PERI AZIMU VELO AIN AR TRES W  DIS CAZ7
 GAZK     IAML     329 0.300         4.2                                        
 GAZK     IAML     329 2.400         4.2                                        
 MRMT     IAML     329 1.700         4.2                                        
 MRMT     IAML     329 4.400         4.2                                        
 RKY      IAML     329 2.100         4.2                                        
 RKY      IAML     329 5.200         4.2                                        
 TKR      IAML     329 3.900         4.2                                        
 KRBG     IAML     329 4.900         4.2                                        
 KRBG     IAML     32910.200         4.2                                        
 BIGA     IAML     329 8.100         4.2                                        
 EDC      IAML     329 7.500         4.2                                        
 EDC      IAML     32915.500         4.2                                        
 LAP      IAML     32910.600         4.2                                        
 ERIK     IAML     32911.600         4.2                                        
 UKOP     IAML     32912.300         4.2                                        
 CANM     IAML     32912.600         4.2                                        
 SLVT     IAML     32913.300         4.2                                        
 GELI     IAML     32913.400         4.2                                        
 SUSR     IAML     32916.100         4.2                                        
 ENEZ     IAML     32916.400         4.2                                        
 CTKS     IAML     32916.700         4.2                                        
 ALN      IAML     32918.400         0.0                                        
 ARMT     IAML     32919.500         4.2                                        
 BALB     IAML     32919.700         4.2                                        
 BGKT     IAML     32919.700         4.2                                        
 YAYO     IAML     32920.000         4.2                                        
 MDNY     IAML     32920.900         4.2                                        
 EZN      IAML     32920.700         4.2                                        
 EDRB     IAML     32921.500         4.2                                        
 GADA     IAML     32922.100         4.2                                        
 BOZC     IAML     32923.500         0.1                                        
 RDO      IAML     32925.100         0.0                                        
                                                                                

 2020  111  333 16.2 LQ 40.697  27.402  8.7      35 0.3 2.9L                   1
 2020  111  333 16.200  40.69750   27.40170    8.700  0.320                    H
 GAP=29                                                                        E
 Action:ARG 24-11-28 15:26 OP:OBSP STATUS:               ID:20200111033316     I
 GSE2.0:evtype=ke                                                              3
 STAT SP IPHASW D HRMM SECON CODA AMPLIT PERI AZIMU VELO AIN AR TRES W  DIS CAZ7
 GAZK     IAML     33318.400       131.8                                        
 GAZK     IAML     33320.400       131.8                                        
 MRMT     IAML     33319.700       131.8                                        
 MRMT     IAML     33322.600       131.8                                        
 RKY      IAML     33320.200       131.8                                        
 RKY      IAML     33323.200       131.8                                        
 TKR      IAML     33322.800       131.8                                        
 TKR      IAML     33327.500       131.8                                        
 KRBG     IAML     33323.300       131.8                                        
 BIGA     IAML     33325.500       131.8                                        
 EDC      IAML     33326.200       131.8                                        
 EDC      IAML     33333.600       131.8                                        
 CRLT     IAML     33326.800       131.8                                        
 BOTS     IAML     33327.200       131.8                                        
 ERIK     IAML     33329.700       131.8                                        
 GONE     IAML     33330.700       131.8                                        
 UKOP     IAML     33330.900       131.8                                        
 CANM     IAML     33330.700       131.8                                        
 GELI     IAML     33331.100       131.8                                        
 YENI     IAML     33331.900       131.8                                        
 SLVT     IAML     33331.900       131.8                                        
 SUSR     IAML     33334.700       131.8                                        
 SINB     IAML     33334.200       131.8                                        
 PHSR     IAML     33334.500       131.8                                        
 ENEZ     IAML     33334.900       131.8                                        
 ENZZ     IAML     33335.300       131.8                                        
 CTKS     IAML     33336.000       131.8                                        
 CTYL     IAML     33336.600       131.8                                        
 ALN      IAML     33336.500         0.8                                        
 AVCI     IAML     33336.900       131.8                                        
 YAYO     IAML     33337.800       131.8                                        
 ARMT     IAML     33338.500       131.8                                        
 BGKT     IAML     33337.200       131.8                                        
 MDNY     IAML     33338.900       131.8                                        
 EZN      IAML     33338.600       131.8                                        
 EZNE     IAML     33339.200       131.8                                        
 EDRB     IAML     33339.800       131.8                                        
 GADA     IAML     33340.800       131.8                                        
 BOZC     IAML     33341.500         1.3                                        
 RDO      IAML     33343.200         0.9                                        
                                                                                

 2020  111  333 59.5 LQ 40.698  27.420  4.3      15 0.2 1.6L                   1
 2020  111  333 59.500  40.69780   27.42000    4.300  0.250                    H
 GAP=109                                                                       E
 Action:ARG 24-11-28 15:26 OP:OBSP STATUS:               ID:20200111033359     I
 GSE2.0:evtype=ke                                                              3
 STAT SP IPHASW D HRMM SECON CODA AMPLIT PERI AZIMU VELO AIN AR TRES W  DIS CAZ7
 GAZK     IAML     334 1.900        23.0                                        
 GAZK     IAML     334 3.700        23.0                                        
 MRMT     IAML     334 3.200        23.0                                        
 MRMT     IAML     334 6.000        23.0                                        
 RKY      IAML     334 3.600        23.0                                        
 RKY      IAML     334 6.600        23.0                                        
 TKR      IAML     334 6.100        23.0                                        
 TKR      IAML     33410.900        23.0                                        
 KRBG     IAML     334 6.500        23.0                                        
 KRBG     IAML     33411.600        23.0                                        
 BIGA     IAML     334 9.300        23.0                                        
 EDC      IAML     334 9.600        23.0                                        
 LAP      IAML     33412.400        23.0                                        
 GONE     IAML     33413.500        23.0                                        
 UKOP     IAML     33414.700        23.0                                        
 CANM     IAML     33414.200        23.0                                        
 GELI     IAML     33415.500        23.0                                        
 SUSR     IAML     33417.300        23.0                                        
 ENEZ     IAML     33419.000        23.0                                        
 ALN      IAML     33420.100         0.0                                        
                                                                                

 2020  111  336  7.5 LQ 40.700  27.407  9.3      30 0.2 2.1L                   1
 2020  111  336  7.500  40.69970   27.40650    9.300  0.240                    H
 GAP=42                                                                        E
 Action:ARG 24-11-28 15:26 OP:OBSP STATUS:               ID:20200111033607     I
 GSE2.0:evtype=ke                                                              3
 STAT SP IPHASW D HRMM SECON CODA AMPLIT PERI AZIMU VELO AIN AR TRES W  DIS CAZ7
 GAZK     IAML     336 9.900        17.7                                        
 GAZK     IAML     33611.900        17.7                                        
 MRMT     IAML     33611.300        17.7                                        
 MRMT     IAML     33614.000        17.7                                        
 RKY      IAML     33611.700        17.7                                        
 RKY      IAML     33614.700        17.7                                        
 TKR      IAML     33614.200        17.7                                        
 TKR      IAML     33618.900        17.7                                        
 KRBG     IAML     33614.600        17.7                                        
 KRBG     IAML     33619.400        17.7                                        
 BIGA     IAML     33617.200        17.7                                        
 EDC      IAML     33617.600        17.7                                        
 CRLT     IAML     33618.200        17.7                                        
 ERIK     IAML     33621.400        17.7                                        
 GONE     IAML     33621.900        17.7                                        
 UKOP     IAML     33622.200        17.7                                        
 CANM     IAML     33621.900        17.7                                        
 GELI     IAML     33623.100        17.7                                        
 YENI     IAML     33622.900        17.7                                        
 SLVT     IAML     33623.700        17.7                                        
 SUSR     IAML     33626.200        17.7                                        
 ENEZ     IAML     33626.000        17.7                                        
 ENZZ     IAML     33626.500        17.7                                        
 CTYL     IAML     33627.700        17.7                                        
 ALN      IAML     33627.700         0.1                                        
 YAYO     IAML     33629.800        17.7                                        
 ARMT     IAML     33629.800        17.7                                        
 BGKT     IAML     33629.400        17.7                                        
 MDNY     IAML     33630.300        17.7                                        
 EZN      IAML     33630.400        17.7                                        
 EZNE     IAML     33630.800        17.7                                        
 EDRB     IAML     33631.300        17.7                                        
 GADA     IAML     33631.500        17.7                                        
 BOZC     IAML     33632.900         0.2                                        
 RDO      IAML     33635.000         0.1                                        
                                                                                

