 2020  111  542 19.2 LQ 40.733  27.423 11.3      12 0.2 1.9L                   1
 2020  111  542 19.200  40.73280   27.42320   11.300  0.250                    H
 GAP=214                                                                       E
 Action:ARG 24-11-28 15:26 OP:OBSP STATUS:               ID:20200111054219     I
 GSE2.0:evtype=ke                                                              3
 STAT SP IPHASW D HRMM SECON CODA AMPLIT PERI AZIMU VELO AIN AR TRES W  DIS CAZ7
 GAZK     IAML     54221.300         5.3                                        
 GAZK     IAML     54224.100         5.3                                        
 MRMT     IAML     54223.700         5.3                                        
 RKY      IAML     54223.800         5.3                                        
 RKY      IAML     54226.800         5.3                                        
 KRBG     IAML     54226.700         5.3                                        
 KRBG     IAML     54232.200         5.3                                        
 EDC      IAML     54229.400         5.3                                        
 EDC      IAML     54236.900         5.3                                        
 LAP      IAML     54232.100         5.3                                        
 ERIK     IAML     54233.000         5.3                                        
 CANM     IAML     54234.200         5.3                                        
 GELI     IAML     54234.900         5.3                                        
 SUSR     IAML     54237.700         5.3                                        
 ENEZ     IAML     54238.300         5.3                                        
 ALN      IAML     54239.600         0.0                                        
                                                                                

 2020  111  6 7 32.5 LQ 40.720  27.367 11.6      13 0.2 1.2L                   1
 2020  111  6 7 32.500  40.72000   27.36750   11.600  0.200                    H
 GAP=89                                                                        E
 Action:ARG 24-11-28 15:26 OP:OBSP STATUS:               ID:20200111060732     I
 GSE2.0:evtype=ke                                                              3
 STAT SP IPHASW D HRMM SECON CODA AMPLIT PERI AZIMU VELO AIN AR TRES W  DIS CAZ7
 GAZK     IAML     6 734.700         0.2                                        
 GAZK     IAML     6 736.800         0.2                                        
 RKY      IAML     6 736.100         0.2                                        
 RKY      IAML     6 738.900         0.2                                        
 MRMT     IAML     6 736.800         0.2                                        
 KRBG     IAML     6 739.400         0.2                                        
 EDC      IAML     6 743.600         0.2                                        
 ERIK     IAML     6 745.700         0.2                                        
 UKOP     IAML     6 746.400         0.2                                        
 SUSR     IAML     6 751.100         0.2                                        
 ALN      IAML     6 752.300         0.0                                        
 YAYO     IAML     6 754.600         0.2                                        
 ARMT     IAML     6 754.500         0.2                                        
 BGKT     IAML     6 754.800         0.2                                        
 EDRB     IAML     6 755.700         0.2                                        
                                                                                

 2020  111  612 51.1 LQ 40.721  27.381 11.6       9 0.3 1.2L                   1
 2020  111  612 51.100  40.72130   27.38120   11.600  0.350                    H
 GAP=181                                                                       E
 Action:ARG 24-11-28 15:26 OP:OBSP STATUS:               ID:20200111061251     I
 GSE2.0:evtype=ke                                                              3
 STAT SP IPHASW D HRMM SECON CODA AMPLIT PERI AZIMU VELO AIN AR TRES W  DIS CAZ7
 GAZK     IAML     61253.800         2.4                                        
 GAZK     IAML     61255.700         2.4                                        
 RKY      IAML     61254.900         2.4                                        
 RKY      IAML     61257.300         2.4                                        
 MRMT     IAML     61255.900         2.4                                        
 MRMT     IAML     61258.500         2.4                                        
 KRBG     IAML     61258.600         2.4                                        
 KRBG     IAML     613 3.700         2.4                                        
 ERIK     IAML     613 4.500         2.4                                        
 UKOP     IAML     613 4.700         2.4                                        
 SUSR     IAML     613 9.400         2.4                                        
 ALN      IAML     61311.200         0.0                                        
 YAYO     IAML     61313.000         2.4                                        
                                                                                

 2020  111  616 55.2 LQ 40.707  27.397 10.1      11 0.3 1.2L                   1
 2020  111  616 55.200  40.70720   27.39700   10.100  0.350                    H
 GAP=90                                                                        E
 Action:ARG 24-11-28 15:26 OP:OBSP STATUS:               ID:20200111061655     I
 GSE2.0:evtype=ke                                                              3
 STAT SP IPHASW D HRMM SECON CODA AMPLIT PERI AZIMU VELO AIN AR TRES W  DIS CAZ7
 GAZK     IAML     61657.800         1.6                                        
 GAZK     IAML     61659.700         1.6                                        
 RKY      IAML     61659.300         1.6                                        
 RKY      IAML     617 2.100         1.6                                        
 MRMT     IAML     61658.600         1.6                                        
 MRMT     IAML     617 2.100         1.6                                        
 KRBG     IAML     617 2.600         1.6                                        
 KRBG     IAML     617 7.200         1.6                                        
 SUSR     IAML     61713.200         1.6                                        
 ENEZ     IAML     61714.000         1.6                                        
 ALN      IAML     61715.600         0.0                                        
 ALN      IAML     61729.900         0.0                                        
 YAYO     IAML     61717.600         1.6                                        
 ARMT     IAML     61717.600         1.6                                        
 EDRB     IAML     61717.900         1.6                                        
 KLYT     IAML     61720.800         1.6                                        
                                                                                

 2020  111  621 49.3 LQ 40.708  27.391 10.6      16 0.2 1.2L                   1
 2020  111  621 49.300  40.70780   27.39100   10.600  0.200                    H
 GAP=89                                                                        E
 Action:ARG 24-11-28 15:26 OP:OBSP STATUS:               ID:20200111062149     I
 GSE2.0:evtype=ke                                                              3
 STAT SP IPHASW D HRMM SECON CODA AMPLIT PERI AZIMU VELO AIN AR TRES W  DIS CAZ7
 GAZK     IAML     62151.600         2.9                                        
 GAZK     IAML     62153.700         2.9                                        
 RKY      IAML     62153.400         2.9                                        
 RKY      IAML     62156.100         2.9                                        
 MRMT     IAML     62152.900         2.9                                        
 KRBG     IAML     62155.900         2.9                                        
 KRBG     IAML     622 1.200         2.9                                        
 ERIK     IAML     622 2.500         2.9                                        
 UKOP     IAML     622 3.600         2.9                                        
 CANM     IAML     622 4.300         2.9                                        
 GELI     IAML     622 4.600         2.9                                        
 SUSR     IAML     622 7.400         2.9                                        
 ALN      IAML     622 9.700         0.0                                        
 YAYO     IAML     62211.700         2.9                                        
 ARMT     IAML     62211.600         2.9                                        
 BGKT     IAML     62211.600         2.9                                        
 EZN      IAML     62212.300         2.9                                        
 EDRB     IAML     62212.900         2.9                                        
 GADA     IAML     62212.700         2.9                                        
                                                                                

 2020  111  629  1.6 LQ 40.714  27.394 10.5      12 0.2 1.2L                   1
 2020  111  629  1.600  40.71420   27.39420   10.500  0.250                    H
 GAP=121                                                                       E
 Action:ARG 24-11-28 15:26 OP:OBSP STATUS:               ID:20200111062901     I
 GSE2.0:evtype=ke                                                              3
 STAT SP IPHASW D HRMM SECON CODA AMPLIT PERI AZIMU VELO AIN AR TRES W  DIS CAZ7
 GAZK     IAML     629 3.900         2.3                                        
 GAZK     IAML     629 5.900         2.3                                        
 RKY      IAML     629 5.600         2.3                                        
 RKY      IAML     629 8.600         2.3                                        
 MRMT     IAML     629 5.500         2.3                                        
 KRBG     IAML     629 8.500         2.3                                        
 KRBG     IAML     62913.600         2.3                                        
 BIGA     IAML     62911.400         2.3                                        
 BIGA     IAML     62918.500         2.3                                        
 ERIK     IAML     62915.500         2.3                                        
 UKOP     IAML     62915.800         2.3                                        
 ALN      IAML     62921.800         0.0                                        
 ALN      IAML     62935.900         0.0                                        
 ARMT     IAML     62923.600         2.3                                        
 EZN      IAML     62924.800         2.3                                        
 EDRB     IAML     62925.100         2.3                                        
 GADA     IAML     62915.500         2.3                                        
                                                                                

 2020  111  631 16.1 LQ 40.689  27.390  6.1      34 0.2 2.0L                   1
 2020  111  631 16.100  40.68920   27.39050    6.100  0.190                    H
 GAP=54                                                                        E
 Action:ARG 24-11-28 15:26 OP:OBSP STATUS:               ID:20200111063116     I
 GSE2.0:evtype=ke                                                              3
 STAT SP IPHASW D HRMM SECON CODA AMPLIT PERI AZIMU VELO AIN AR TRES W  DIS CAZ7
 GAZK     IAML     63118.300        11.8                                        
 GAZK     IAML     63119.900        11.8                                        
 RKY      IAML     63119.900        11.8                                        
 RKY      IAML     63122.900        11.8                                        
 MRMT     IAML     63119.800        11.8                                        
 KRBG     IAML     63122.300        11.8                                        
 KRBG     IAML     63127.300        11.8                                        
 BIGA     IAML     63125.400        11.8                                        
 EDC      IAML     63126.100        11.8                                        
 CRLT     IAML     63126.700        11.8                                        
 ERIK     IAML     63129.400        11.8                                        
 ERIK     IAML     63138.900        11.8                                        
 GONE     IAML     63129.500        11.8                                        
 UKOP     IAML     63130.600        11.8                                        
 UKOP     IAML     63140.900        11.8                                        
 CANM     IAML     63130.600        11.8                                        
 GELI     IAML     63131.300        11.8                                        
 YENI     IAML     63131.300        11.8                                        
 SLVT     IAML     63132.100        11.8                                        
 SUSR     IAML     63133.900        11.8                                        
 ENEZ     IAML     63134.600        11.8                                        
 ENZZ     IAML     63134.900        11.8                                        
 CTKS     IAML     63135.800        11.8                                        
 ALN      IAML     63135.900         0.1                                        
 CTYL     IAML     63136.500        11.8                                        
 BALB     IAML     63137.700        11.8                                        
 YAYO     IAML     63137.600        11.8                                        
 ARMT     IAML     63138.300        11.8                                        
 BGKT     IAML     63138.500        11.8                                        
 MDNY     IAML     63139.300        11.8                                        
 EZN      IAML     63138.700        11.8                                        
 EZNE     IAML     63139.400        11.8                                        
 GADA     IAML     63140.700        11.8                                        
 EDRB     IAML     63139.600        11.8                                        
 BRGA     IAML     63140.700        11.8                                        
 KAVV     IAML     63141.500        11.8                                        
 BOZC     IAML     63141.400         0.1                                        
 KLYT     IAML     63142.100        11.8                                        
 RDO      IAML     63143.800         0.1                                        
                                                                                

 2020  111  633  5.4 LQ 40.723  27.422  9.9       7 0.3 1.5L                   1
 2020  111  633  5.400  40.72280   27.42180    9.900  0.290                    H
 GAP=204                                                                       E
 Action:ARG 24-11-28 15:26 OP:OBSP STATUS:               ID:20200111063305     I
 GSE2.0:evtype=ke                                                              3
 STAT SP IPHASW D HRMM SECON CODA AMPLIT PERI AZIMU VELO AIN AR TRES W  DIS CAZ7
 GAZK     IAML     633 7.900         5.2                                        
 GAZK     IAML     63310.000         5.2                                        
 MRMT     IAML     633 9.200         5.2                                        
 MRMT     IAML     63312.100         5.2                                        
 RKY      IAML     633 9.800         5.2                                        
 RKY      IAML     63312.800         5.2                                        
 KRBG     IAML     63312.500         5.2                                        
 KRBG     IAML     63317.700         5.2                                        
 GELI     IAML     63321.100         5.2                                        
 GELI     IAML     63333.000         5.2                                        
 SUSR     IAML     63323.700         5.2                                        
 SUSR     IAML     63336.700         5.2                                        
 ALN      IAML     63326.200         0.0                                        
 ALN      IAML     63340.300         0.0                                        
                                                                                

 2020  111  634 30.5 LQ 40.711  27.422  7.4      10 0.1 1.6L                   1
 2020  111  634 30.500  40.71070   27.42180    7.400  0.110                    H
 GAP=100                                                                       E
 Action:ARG 24-11-28 15:26 OP:OBSP STATUS:               ID:20200111063430     I
 GSE2.0:evtype=ke                                                              3
 STAT SP IPHASW D HRMM SECON CODA AMPLIT PERI AZIMU VELO AIN AR TRES W  DIS CAZ7
 GAZK     IAML     63432.900         9.5                                        
 GAZK     IAML     63434.800         9.5                                        
 MRMT     IAML     63434.300         9.5                                        
 MRMT     IAML     63437.100         9.5                                        
 RKY      IAML     63434.800         9.5                                        
 RKY      IAML     63437.800         9.5                                        
 KRBG     IAML     63437.700         9.5                                        
 KRBG     IAML     63442.800         9.5                                        
 CRLT     IAML     63440.400         9.5                                        
 EDC      IAML     63440.400         9.5                                        
 EDC      IAML     63448.000         9.5                                        
 ERIK     IAML     63444.400         9.5                                        
 UKOP     IAML     63445.200         9.5                                        
 CANM     IAML     63444.500         9.5                                        
 ALN      IAML     63451.400         0.0                                        
                                                                                

 2020  111  637 36.1 LQ 40.725  27.427 11.7       8 0.2 1.5L                   1
 2020  111  637 36.100  40.72470   27.42680   11.700  0.200                    H
 GAP=207                                                                       E
 Action:ARG 24-11-28 15:26 OP:OBSP STATUS:               ID:20200111063736     I
 GSE2.0:evtype=ke                                                              3
 STAT SP IPHASW D HRMM SECON CODA AMPLIT PERI AZIMU VELO AIN AR TRES W  DIS CAZ7
 GAZK     IAML     63738.900         3.7                                        
 GAZK     IAML     63740.900         3.7                                        
 MRMT     IAML     63740.300         3.7                                        
 RKY      IAML     63740.800         3.7                                        
 RKY      IAML     63743.800         3.7                                        
 KRBG     IAML     63743.700         3.7                                        
 KRBG     IAML     63748.800         3.7                                        
 LAP      IAML     63749.100         3.7                                        
 SUSR     IAML     63753.600         3.7                                        
 ENEZ     IAML     63754.800         3.7                                        
 ALN      IAML     63756.900         0.0                                        
                                                                                

