 2020  111  638 26.9 LQ 40.708  27.419 13.5       8 0.1 0.9L                   1
 2020  111  638 26.900  40.70780   27.41870   13.500  0.090                    H
 GAP=188                                                                       E
 Action:ARG 24-11-28 15:26 OP:OBSP STATUS:               ID:20200111063826     I
 GSE2.0:evtype=ke                                                              3
 STAT SP IPHASW D HRMM SECON CODA AMPLIT PERI AZIMU VELO AIN AR TRES W  DIS CAZ7
 GAZK     IAML     63829.900         1.4                                        
 GAZK     IAML     63832.200         1.4                                        
 MRMT     IAML     63831.100         1.4                                        
 MRMT     IAML     63834.100         1.4                                        
 RKY      IAML     63831.400         1.4                                        
 RKY      IAML     63834.800         1.4                                        
 KRBG     IAML     63833.900         1.4                                        
 KRBG     IAML     63839.200         1.4                                        
 ERIK     IAML     63840.600         1.4                                        
 SUSR     IAML     63844.700         1.4                                        
 ENEZ     IAML     63845.800         1.4                                        
 ALN      IAML     63847.800         0.0                                        
                                                                                

 2020  111  649 34.4 LQ 40.710  27.434 12.0       7 0.1 0.8L                   1
 2020  111  649 34.400  40.70970   27.43420   12.000  0.140                    H
 GAP=196                                                                       E
 Action:ARG 24-11-28 15:26 OP:OBSP STATUS:               ID:20200111064934     I
 GSE2.0:evtype=ke                                                              3
 STAT SP IPHASW D HRMM SECON CODA AMPLIT PERI AZIMU VELO AIN AR TRES W  DIS CAZ7
 GAZK     IAML     64937.600         1.3                                        
 GAZK     IAML     64939.400         1.3                                        
 MRMT     IAML     64938.100         1.3                                        
 MRMT     IAML     64941.200         1.3                                        
 RKY      IAML     64939.000         1.3                                        
 RKY      IAML     64942.500         1.3                                        
 KRBG     IAML     64941.500         1.3                                        
 KRBG     IAML     64946.800         1.3                                        
 ERIK     IAML     64948.400         1.3                                        
 SUSR     IAML     64951.900         1.3                                        
 ALN      IAML     64955.400         0.0                                        
 ALN      IAML     650 9.800         0.0                                        
                                                                                

 2020  111  657 30.9 LQ 40.705  27.415  9.2      11 0.1 1.8L                   1
 2020  111  657 30.900  40.70450   27.41450    9.200  0.110                    H
 GAP=183                                                                       E
 Action:ARG 24-11-28 15:26 OP:OBSP STATUS:               ID:20200111065730     I
 GSE2.0:evtype=ke                                                              3
 STAT SP IPHASW D HRMM SECON CODA AMPLIT PERI AZIMU VELO AIN AR TRES W  DIS CAZ7
 GAZK     IAML     65733.300         5.3                                        
 GAZK     IAML     65735.400         5.3                                        
 MRMT     IAML     65734.700         5.3                                        
 MRMT     IAML     65737.400         5.3                                        
 RKY      IAML     65735.200         5.3                                        
 RKY      IAML     65738.100         5.3                                        
 KRBG     IAML     65737.900         5.3                                        
 EDC      IAML     65741.000         5.3                                        
 ERIK     IAML     65744.600         5.3                                        
 GONE     IAML     65744.700         5.3                                        
 CANM     IAML     65745.400         5.3                                        
 GELI     IAML     65746.400         5.3                                        
 SUSR     IAML     65748.600         5.3                                        
 ALN      IAML     65751.400         0.0                                        
                                                                                

 2020  111  711 56.0 LQ 40.711  27.433  9.4      14 0.3 1.3L                   1
 2020  111  711 56.0    40.71130   27.43250    9.400  0.260                    H
 GAP=113                                                                       E
 Action:ARG 24-11-28 15:26 OP:OBSP STATUS:               ID:20200111071156     I
 GSE2.0:evtype=ke                                                              3
 STAT SP IPHASW D HRMM SECON CODA AMPLIT PERI AZIMU VELO AIN AR TRES W  DIS CAZ7
 GAZK     IAML     71158.700         0.3                                        
 GAZK     IAML     712 0.700         0.3                                        
 MRMT     IAML     71159.900         0.3                                        
 MRMT     IAML     712 2.400         0.3                                        
 RKY      IAML     712 0.700         0.3                                        
 RKY      IAML     712 3.500         0.3                                        
 KRBG     IAML     712 3.100         0.3                                        
 KRBG     IAML     712 8.600         0.3                                        
 BIGA     IAML     712 5.900         0.3                                        
 EDC      IAML     712 5.900         0.3                                        
 LAP      IAML     712 8.900         0.3                                        
 UKOP     IAML     71210.900         0.3                                        
 CANM     IAML     712 9.900         0.3                                        
 GELI     IAML     71211.800         0.3                                        
 SUSR     IAML     71213.500         0.3                                        
 CTKS     IAML     71215.300         0.3                                        
 ENEZ     IAML     71214.900         0.3                                        
 ALN      IAML     71216.400         0.0                                        
                                                                                

 2020  111  713  8.4 LQ 40.720  27.420 12.0       8 0.1 1.5L                   1
 2020  111  713  8.400  40.71970   27.42020   12.000  0.100                    H
 GAP=200                                                                       E
 Action:ARG 24-11-28 15:26 OP:OBSP STATUS:               ID:20200111071308     I
 GSE2.0:evtype=ke                                                              3
 STAT SP IPHASW D HRMM SECON CODA AMPLIT PERI AZIMU VELO AIN AR TRES W  DIS CAZ7
 GAZK     IAML     71311.300         4.7                                        
 GAZK     IAML     71313.300         4.7                                        
 MRMT     IAML     71312.600         4.7                                        
 MRMT     IAML     71315.500         4.7                                        
 RKY      IAML     71312.900         4.7                                        
 RKY      IAML     71316.100         4.7                                        
 KRBG     IAML     71315.800         4.7                                        
 EDC      IAML     71318.500         4.7                                        
 ERIK     IAML     71322.300         4.7                                        
 SUSR     IAML     71326.500         4.7                                        
 ALN      IAML     71328.900         0.0                                        
                                                                                

 2020  111  715 21.0 LQ 40.706  27.408 11.7       7 0.1 1.0L                   1
 2020  111  715 21.0    40.70580   27.40800   11.700  0.060                    H
 GAP=180                                                                       E
 Action:ARG 24-11-28 15:26 OP:OBSP STATUS:               ID:20200111071521     I
 GSE2.0:evtype=ke                                                              3
 STAT SP IPHASW D HRMM SECON CODA AMPLIT PERI AZIMU VELO AIN AR TRES W  DIS CAZ7
 GAZK     IAML     71523.800         1.8                                        
 GAZK     IAML     71525.800         1.8                                        
 MRMT     IAML     71525.100         1.8                                        
 MRMT     IAML     71528.100         1.8                                        
 RKY      IAML     71525.300         1.8                                        
 RKY      IAML     71528.400         1.8                                        
 KRBG     IAML     71528.100         1.8                                        
 KRBG     IAML     71533.200         1.8                                        
 UKOP     IAML     71535.500         1.8                                        
 SUSR     IAML     71538.800         1.8                                        
 ALN      IAML     71541.600         0.0                                        
                                                                                

 2020  111  725 28.1 LQ 40.708  27.420  8.9       8 0.2 1.3L                   1
 2020  111  725 28.100  40.70780   27.41970    8.900  0.200                    H
 GAP=189                                                                       E
 Action:ARG 24-11-28 15:26 OP:OBSP STATUS:               ID:20200111072528     I
 GSE2.0:evtype=ke                                                              3
 STAT SP IPHASW D HRMM SECON CODA AMPLIT PERI AZIMU VELO AIN AR TRES W  DIS CAZ7
 GAZK     IAML     72530.600         3.3                                        
 GAZK     IAML     72532.600         3.3                                        
 MRMT     IAML     72531.900         3.3                                        
 MRMT     IAML     72534.400         3.3                                        
 RKY      IAML     72532.500         3.3                                        
 RKY      IAML     72535.400         3.3                                        
 KRBG     IAML     72535.400         3.3                                        
 KRBG     IAML     72540.200         3.3                                        
 ERIK     IAML     72542.100         3.3                                        
 ERIK     IAML     72551.500         3.3                                        
 GELI     IAML     72543.700         3.3                                        
 GELI     IAML     72554.900         3.3                                        
 SUSR     IAML     72545.900         3.3                                        
 ALN      IAML     72548.700         0.0                                        
                                                                                

 2020  111  727 31.1 LQ 40.700  27.421 12.7       7 0.1 0.9L                   1
 2020  111  727 31.100  40.70020   27.42130   12.700  0.110                    H
 GAP=183                                                                       E
 Action:ARG 24-11-28 15:26 OP:OBSP STATUS:               ID:20200111072731     I
 GSE2.0:evtype=ke                                                              3
 STAT SP IPHASW D HRMM SECON CODA AMPLIT PERI AZIMU VELO AIN AR TRES W  DIS CAZ7
 GAZK     IAML     72734.200         1.0                                        
 GAZK     IAML     72736.300         1.0                                        
 MRMT     IAML     72735.100         1.0                                        
 MRMT     IAML     72738.200         1.0                                        
 RKY      IAML     72735.700         1.0                                        
 RKY      IAML     72739.200         1.0                                        
 KRBG     IAML     72738.100         1.0                                        
 KRBG     IAML     72743.200         1.0                                        
 SUSR     IAML     72748.700         1.0                                        
 SUSR     IAML     728 1.500         1.0                                        
 ENEZ     IAML     72750.200         1.0                                        
 ALN      IAML     72751.900         0.0                                        
 ALN      IAML     728 6.800         0.0                                        
                                                                                

 2020  111  749 48.7 LQ 40.715  27.418 11.5      11 0.1 1.7L                   1
 2020  111  749 48.700  40.71530   27.41830   11.500  0.100                    H
 GAP=195                                                                       E
 Action:ARG 24-11-28 15:26 OP:OBSP STATUS:               ID:20200111074948     I
 GSE2.0:evtype=ke                                                              3
 STAT SP IPHASW D HRMM SECON CODA AMPLIT PERI AZIMU VELO AIN AR TRES W  DIS CAZ7
 GAZK     IAML     74951.400         6.7                                        
 GAZK     IAML     74953.500         6.7                                        
 MRMT     IAML     74952.800         6.7                                        
 MRMT     IAML     74955.800         6.7                                        
 RKY      IAML     74953.200         6.7                                        
 RKY      IAML     74956.400         6.7                                        
 KRBG     IAML     74955.700         6.7                                        
 KRBG     IAML     750 1.300         6.7                                        
 BIGA     IAML     74958.600         6.7                                        
 EDC      IAML     74959.100         6.7                                        
 ERIK     IAML     750 2.600         6.7                                        
 ERIK     IAML     75011.900         6.7                                        
 CANM     IAML     750 3.500         6.7                                        
 GELI     IAML     750 4.300         6.7                                        
 SUSR     IAML     750 6.600         6.7                                        
 ALN      IAML     750 9.500         0.0                                        
                                                                                

 2020  111  757 17.5 LQ 40.665  27.398  5.0      11 0.2 1.0L                   1
 2020  111  757 17.500  40.66500   27.39770    5.000  0.170                    H
 GAP=144                                                                       E
 Action:ARG 24-11-28 15:26 OP:OBSP STATUS:               ID:20200111075717     I
 GSE2.0:evtype=ke                                                              3
 STAT SP IPHASW D HRMM SECON CODA AMPLIT PERI AZIMU VELO AIN AR TRES W  DIS CAZ7
 GAZK     IAML     75719.700         2.2                                        
 GAZK     IAML     75721.900         2.2                                        
 MRMT     IAML     75721.400         2.2                                        
 MRMT     IAML     75723.900         2.2                                        
 RKY      IAML     75721.500         2.2                                        
 RKY      IAML     75724.600         2.2                                        
 KRBG     IAML     75724.400         2.2                                        
 KRBG     IAML     75729.600         2.2                                        
 EDC      IAML     75727.900         2.2                                        
 ERIK     IAML     75731.700         2.2                                        
 UKOP     IAML     75733.000         2.2                                        
 SUSR     IAML     75735.600         2.2                                        
 ENEZ     IAML     75737.300         2.2                                        
 ALN      IAML     75738.500         0.0                                        
 YAYO     IAML     75739.500         2.2                                        
                                                                                

 2020  111  8 8 57.1 LQ 40.722  27.437 11.7       9 0.2 1.1L                   1
 2020  111  8 8 57.100  40.72230   27.43700   11.700  0.210                    H
 GAP=192                                                                       E
 Action:ARG 24-11-28 15:26 OP:OBSP STATUS:               ID:20200111080857     I
 GSE2.0:evtype=ke                                                              3
 STAT SP IPHASW D HRMM SECON CODA AMPLIT PERI AZIMU VELO AIN AR TRES W  DIS CAZ7
 GAZK     IAML     8 9 0.100         2.3                                        
 GAZK     IAML     8 9 2.200         2.3                                        
 MRMT     IAML     8 9 0.900         2.3                                        
 MRMT     IAML     8 9 4.300         2.3                                        
 RKY      IAML     8 9 1.900         2.3                                        
 KRBG     IAML     8 9 4.500         2.3                                        
 KRBG     IAML     8 9 9.600         2.3                                        
 ERIK     IAML     8 910.900         2.3                                        
 UKOP     IAML     8 911.400         2.3                                        
 SUSR     IAML     8 914.800         2.3                                        
 ALN      IAML     8 917.900         0.0                                        
 YAYO     IAML     8 918.800         2.3                                        
 YAYO     IAML     8 935.700         2.3                                        
                                                                                

