 2020  1 4 1131 16.1 LQ 40.624  29.160  7.0      46 0.3 2.5L                   1
 2020  1 4 1131 16.100  40.62450   29.16020    7.000  0.290                    H
 GAP=40                                                                        E
 Action:ARG 24-11-28 15:26 OP:OBSP STATUS:               ID:20200104113116     I
 GSE2.0:evtype=ke                                                              3
 STAT SP IPHASW D HRMM SECON CODA AMPLIT PERI AZIMU VELO AIN AR TRES W  DIS CAZ7
 LAFA     IAML    113120.800         0.6                                        
 LAFA     IAML    113124.300         0.6                                        
 TUZL     IAML    113121.100         0.6                                        
 TUZL     IAML    113124.300         0.6                                        
 ARMT     IAML    113122.700         0.6                                        
 ARMT     IAML    113125.900         0.6                                        
 BUYA     IAML    113121.800         0.6                                        
 BUYA     IAML    113125.700         0.6                                        
 HYBA     IAML    113121.900         0.6                                        
 HYBA     IAML    113125.900         0.6                                        
 BRGA     IAML    113122.300         0.6                                        
 BRGA     IAML    113126.500         0.6                                        
 MDNY     IAML    113123.300         0.6                                        
 MDNY     IAML    113128.300         0.6                                        
 OSMT     IAML    113125.200         0.6                                        
 HRTX     IAML    113124.900         0.6                                        
 HRTX     IAML    113130.900         0.6                                        
 KAVV     IAML    113124.900         0.6                                        
 ADVT     IAML    113126.100         0.6                                        
 ADVT     IAML    113132.600         0.6                                        
 HVHR     IAML    113126.400         0.6                                        
 ORLT     IAML    113128.300         0.6                                        
 BGKT     IAML    113128.500         0.6                                        
 BGKT     IAML    113136.900         0.6                                        
 KLYT     IAML    113128.700         0.6                                        
 KLYT     IAML    113137.400         0.6                                        
 SILT     IAML    113128.900         0.6                                        
 CAVI     IAML    113129.700         0.6                                        
 KCTX     IAML    113130.800         0.6                                        
 CTKS     IAML    113131.200         0.6                                        
 SAUV     IAML    113133.600         0.6                                        
 SLVT     IAML    113134.500         0.6                                        
 EDC      IAML    113136.100         0.6                                        
 GULT     IAML    113136.600         0.6                                        
 SUSR     IAML    113136.500         0.6                                        
 CTYL     IAML    113135.100         0.6                                        
 DST      IAML    113137.500         0.6                                        
 CRLT     IAML    113139.300         0.6                                        
 TVSB     IAML    113139.100         0.6                                        
 MRMT     IAML    113139.200         0.6                                        
 GONE     IAML    113140.500         0.6                                        
 UVEZ     IAML    113142.200         0.6                                        
 BALB     IAML    113142.400         0.6                                        
 GAZK     IAML    113142.400         0.6                                        
 KRBG     IAML    113143.200         0.6                                        
 SIMA     IAML    113144.900         0.6                                        
 SHAP     IAML    113145.500         0.6                                        
 YENI     IAML    113145.800         0.6                                        
 CANM     IAML    113147.200         0.6                                        
 LAP      IAML    113148.900         0.6                                        
 GORD     IAML    113149.600         0.6                                        
 YAYO     IAML    113149.700         0.6                                        
 RUZG     IAML    113151.400         0.6                                        
 ERIK     IAML    113151.300         0.6                                        
 GELI     IAML    113152.300         0.6                                        
 KULA     IAML    113153.500         0.6                                        
 SVRH     IAML    113153.700         0.6                                        
                                                                                

 2020  1 4 1713  2.8 LQ 40.770  29.046 15.0      34 0.3 3.2L                   1
 2020  1 4 1713  2.800  40.77030   29.04570   15.000  0.270                    H
 GAP=67                                                                        E
 Action:ARG 24-11-28 15:26 OP:OBSP STATUS:               ID:20200104171302     I
 GSE2.0:evtype=ke                                                              3
 STAT SP IPHASW D HRMM SECON CODA AMPLIT PERI AZIMU VELO AIN AR TRES W  DIS CAZ7
 HYBA     IAML    1713 6.500        52.4                                        
 HYBA     IAML    1713 8.600        52.4                                        
 BRGA     IAML    1713 6.600        52.4                                        
 BRGA     IAML    1713 8.800        52.4                                        
 BUYA     IAML    1713 6.600        52.4                                        
 BUYA     IAML    1713 8.800        52.4                                        
 TUZL     IAML    1713 7.400        52.4                                        
 TUZL     IAML    171310.500        52.4                                        
 LAFA     IAML    1713 8.600        52.4                                        
 LAFA     IAML    171312.400        52.4                                        
 ARMT     IAML    1713 9.900        52.4                                        
 YLVH     IAML    1713 9.300        52.4                                        
 KAVV     IAML    1713 9.100        52.4                                        
 AVCI     IAML    171310.400        52.4                                        
 HVHR     IAML    1713 9.400        52.4                                        
 YKBL     IAML    171310.700        52.4                                        
 MDNY     IAML    171311.800        52.4                                        
 SINB     IAML    171312.200        52.4                                        
 BGKT     IAML    171312.400        52.4                                        
 HRTX     IAML    171312.800        52.4                                        
 KLYT     IAML    171313.100        52.4                                        
 OSMT     IAML    171313.400        52.4                                        
 SILT     IAML    171314.900        52.4                                        
 CTKS     IAML    171315.400        52.4                                        
 ADVT     IAML    171315.200        52.4                                        
 ORLT     IAML    171317.300        52.4                                        
 KCTX     IAML    171316.900        52.4                                        
 SLVT     IAML    171318.400        52.4                                        
 CAVI     IAML    171319.400        52.4                                        
 BOTS     IAML    171319.500        52.4                                        
 CTYL     IAML    171320.600        52.4                                        
 SAUV     IAML    171321.400        52.4                                        
 EDC      IAML    171324.400        52.4                                        
 CRLT     IAML    171323.400        52.4                                        
 GPA      IAML    171323.800        52.4                                        
 SUSR     IAML    171323.300        52.4                                        
 MRMT     IAML    171323.900        52.4                                        
 GULT     IAML    171325.100        52.4                                        
 DST      IAML    171325.400        52.4                                        
                                                                                

 2020  1 4 2148  0.8 LQ 40.889  28.223  8.1      12 0.2 1.4L                   1
 2020  1 4 2148  0.800  40.88950   28.22250    8.100  0.250                    H
 GAP=63                                                                        E
 Action:ARG 24-11-28 15:26 OP:OBSP STATUS:               ID:20200104214800     I
 GSE2.0:evtype=ke                                                              3
 STAT SP IPHASW D HRMM SECON CODA AMPLIT PERI AZIMU VELO AIN AR TRES W  DIS CAZ7
 SLVT     IAML    2148 8.300         0.1                                        
 SLVT     IAML    214813.200         0.1                                        
 CTKS     IAML    2148 9.100         0.1                                        
 CRLT     IAML    214810.100         0.1                                        
 BGKT     IAML    214811.000         0.1                                        
 BGKT     IAML    214818.500         0.1                                        
 TKR      IAML    214811.200         0.1                                        
 ARMT     IAML    214813.500         0.1                                        
 KAVV     IAML    214814.200         0.1                                        
 KLYT     IAML    214814.900         0.1                                        
 KLYT     IAML    214825.700         0.1                                        
 KRBG     IAML    214818.000         0.1                                        
 SUSR     IAML    214819.200         0.1                                        
 SUSR     IAML    214832.100         0.1                                        
 UKOP     IAML    214824.700         0.1                                        
 EDRB     IAML    214827.700         0.1                                        
                                                                                

 2020  1 5  013 31.5 LQ 40.893  28.228  2.1      21 0.2 1.8L                   1
 2020  1 5  013 31.500  40.89270   28.22830    2.100  0.170                    H
 GAP=51                                                                        E
 Action:ARG 24-11-28 15:26 OP:OBSP STATUS:               ID:20200105001331     I
 GSE2.0:evtype=ke                                                              3
 STAT SP IPHASW D HRMM SECON CODA AMPLIT PERI AZIMU VELO AIN AR TRES W  DIS CAZ7
 SLVT     IAML     01339.200         0.3                                        
 SLVT     IAML     01344.600         0.3                                        
 CRLT     IAML     01341.100         0.3                                        
 BGKT     IAML     01342.200         0.3                                        
 BGKT     IAML     01350.000         0.3                                        
 ARMT     IAML     01344.300         0.3                                        
 CTYL     IAML     01343.900         0.3                                        
 KCTX     IAML     01344.600         0.3                                        
 KAVV     IAML     01344.900         0.3                                        
 GAZK     IAML     01345.900         0.3                                        
 GAZK     IAML     01356.500         0.3                                        
 KLYT     IAML     01346.000         0.3                                        
 MDNY     IAML     01346.300         0.3                                        
 KRBG     IAML     01348.700         0.3                                        
 SUSR     IAML     01350.400         0.3                                        
 HRTX     IAML     01353.600         0.3                                        
 UKOP     IAML     01355.900         0.3                                        
 ADVT     IAML     01356.000         0.3                                        
 BALB     IAML     01356.900         0.3                                        
 EDRB     IAML     01358.800         0.3                                        
 YAYO     IAML     014 0.900         0.3                                        
 ALN      IAML     014 2.200         0.0                                        
 EZN      IAML     014 4.400         0.3                                        
 RDO      IAML     014 8.300         0.0                                        
                                                                                

 2020  1 5  212 48.7 LQ 40.598  28.957 16.6      15 0.1 1.8L                   1
 2020  1 5  212 48.700  40.59800   28.95750   16.600  0.100                    H
 GAP=88                                                                        E
 Action:ARG 24-11-28 15:26 OP:OBSP STATUS:               ID:20200105021248     I
 GSE2.0:evtype=ke                                                              3
 STAT SP IPHASW D HRMM SECON CODA AMPLIT PERI AZIMU VELO AIN AR TRES W  DIS CAZ7
 ARMT     IAML     21252.300         3.5                                        
 ARMT     IAML     21254.000         3.5                                        
 MDNY     IAML     21254.400         3.5                                        
 MDNY     IAML     21258.500         3.5                                        
 HYBA     IAML     21255.400         3.5                                        
 HYBA     IAML     213 0.100         3.5                                        
 BRGA     IAML     21255.400         3.5                                        
 BRGA     IAML     213 0.300         3.5                                        
 BUYA     IAML     21255.700         3.5                                        
 BUYA     IAML     213 0.500         3.5                                        
 TUZL     IAML     21255.800         3.5                                        
 TUZL     IAML     213 1.100         3.5                                        
 KAVV     IAML     21258.700         3.5                                        
 HRTX     IAML     213 0.500         3.5                                        
 KCTX     IAML     213 0.400         3.5                                        
 BGKT     IAML     213 1.100         3.5                                        
 ADVT     IAML     213 1.300         3.5                                        
 KLYT     IAML     213 2.200         3.5                                        
 SILT     IAML     213 3.900         3.5                                        
 SLVT     IAML     213 5.600         3.5                                        
 SUSR     IAML     213 6.900         3.5                                        
                                                                                

 2020  1 5 2019 49.9 LQ 40.781  29.060  8.8      32 0.3 2.1L                   1
 2020  1 5 2019 49.900  40.78080   29.06000    8.800  0.330                    H
 GAP=43                                                                        E
 Action:ARG 24-11-28 15:26 OP:OBSP STATUS:               ID:20200105201949     I
 GSE2.0:evtype=ke                                                              3
 STAT SP IPHASW D HRMM SECON CODA AMPLIT PERI AZIMU VELO AIN AR TRES W  DIS CAZ7
 HYBA     IAML    201953.000         3.1                                        
 HYBA     IAML    201954.600         3.1                                        
 BUYA     IAML    201953.200         3.1                                        
 BUYA     IAML    201955.300         3.1                                        
 BRGA     IAML    201953.100         3.1                                        
 BRGA     IAML    201954.900         3.1                                        
 TUZL     IAML    201953.800         3.1                                        
 TUZL     IAML    201956.600         3.1                                        
 LAFA     IAML    201954.900         3.1                                        
 LAFA     IAML    201958.600         3.1                                        
 YLVH     IAML    201955.900         3.1                                        
 ARMT     IAML    201956.600         3.1                                        
 KAVV     IAML    201955.800         3.1                                        
 KAVV     IAML    2020 0.100         3.1                                        
 AVCI     IAML    201957.700         3.1                                        
 YKBL     IAML    201957.500         3.1                                        
 MDNY     IAML    201958.300         3.1                                        
 SINB     IAML    201959.300         3.1                                        
 BGKT     IAML    201959.100         3.1                                        
 HRTX     IAML    201958.900         3.1                                        
 KLYT     IAML    201959.700         3.1                                        
 OSMT     IAML    2020 0.900         3.1                                        
 SILT     IAML    2020 1.600         3.1                                        
 CTKS     IAML    2020 2.300         3.1                                        
 ADVT     IAML    2020 1.900         3.1                                        
 ORLT     IAML    2020 4.800         3.1                                        
 KCTX     IAML    2020 3.100         3.1                                        
 SLVT     IAML    2020 5.100         3.1                                        
 SAUV     IAML    2020 8.700         3.1                                        
 EDC      IAML    2020 9.800         3.1                                        
 SUSR     IAML    202011.200         3.1                                        
 GULT     IAML    202012.700         3.1                                        
 GONE     IAML    202014.400         3.1                                        
 GAZK     IAML    202015.400         3.1                                        
 TVSB     IAML    202014.600         3.1                                        
 KRBG     IAML    202016.500         3.1                                        
 RKY      IAML    202016.800         3.1                                        
 BALB     IAML    202017.200         3.1                                        
                                                                                

