 2020  111  349 50.1 LQ 40.701  27.401  8.8      22 0.3 1.6L                   1
 2020  111  349 50.100  40.70100   27.40100    8.800  0.340                    H
 GAP=74                                                                        E
 Action:ARG 24-11-28 15:26 OP:OBSP STATUS:               ID:20200111034950     I
 GSE2.0:evtype=ke                                                              3
 STAT SP IPHASW D HRMM SECON CODA AMPLIT PERI AZIMU VELO AIN AR TRES W  DIS CAZ7
 GAZK     IAML     34952.300         4.5                                        
 GAZK     IAML     34954.400         4.5                                        
 MRMT     IAML     34953.900         4.5                                        
 MRMT     IAML     34956.500         4.5                                        
 RKY      IAML     34954.200         4.5                                        
 RKY      IAML     34956.900         4.5                                        
 TKR      IAML     34956.900         4.5                                        
 KRBG     IAML     34957.200         4.5                                        
 KRBG     IAML     350 2.200         4.5                                        
 CRLT     IAML     350 0.500         4.5                                        
 EDC      IAML     350 0.100         4.5                                        
 ERIK     IAML     350 3.700         4.5                                        
 UKOP     IAML     350 4.800         4.5                                        
 CANM     IAML     350 4.400         4.5                                        
 GELI     IAML     350 5.700         4.5                                        
 YENI     IAML     350 6.100         4.5                                        
 SLVT     IAML     350 6.400         4.5                                        
 SUSR     IAML     350 8.300         4.5                                        
 ENEZ     IAML     350 9.500         4.5                                        
 ALN      IAML     35010.200         0.0                                        
 YAYO     IAML     35012.600         4.5                                        
 EZN      IAML     35012.600         4.5                                        
 EDRB     IAML     35013.900         4.5                                        
 GADA     IAML     35013.500         4.5                                        
 BOZC     IAML     35015.500         0.0                                        
 RDO      IAML     35017.400         0.0                                        
                                                                                

 2020  111  357 34.5 LQ 40.690  27.407  5.9      24 0.3 1.4L                   1
 2020  111  357 34.500  40.68970   27.40750    5.900  0.260                    H
 GAP=48                                                                        E
 Action:ARG 24-11-28 15:26 OP:OBSP STATUS:               ID:20200111035734     I
 GSE2.0:evtype=ke                                                              3
 STAT SP IPHASW D HRMM SECON CODA AMPLIT PERI AZIMU VELO AIN AR TRES W  DIS CAZ7
 GAZK     IAML     35736.600         3.0                                        
 GAZK     IAML     35738.400         3.0                                        
 MRMT     IAML     35737.800         3.0                                        
 MRMT     IAML     35740.600         3.0                                        
 RKY      IAML     35738.300         3.0                                        
 RKY      IAML     35741.900         3.0                                        
 KRBG     IAML     35741.100         3.0                                        
 KRBG     IAML     35745.700         3.0                                        
 TKR      IAML     35741.500         3.0                                        
 BIGA     IAML     35743.800         3.0                                        
 EDC      IAML     35744.500         3.0                                        
 EDC      IAML     35751.700         3.0                                        
 GONE     IAML     35748.100         3.0                                        
 ERIK     IAML     35748.400         3.0                                        
 CANM     IAML     35749.100         3.0                                        
 UKOP     IAML     35749.300         3.0                                        
 GELI     IAML     35749.800         3.0                                        
 SLVT     IAML     35751.400         3.0                                        
 SUSR     IAML     35752.000         3.0                                        
 ENEZ     IAML     35753.300         3.0                                        
 ALN      IAML     35754.900         0.0                                        
 BALB     IAML     35756.000         3.0                                        
 YAYO     IAML     35756.300         3.0                                        
 ARMT     IAML     35756.900         3.0                                        
 EZN      IAML     35757.400         3.0                                        
 GADA     IAML     35758.900         3.0                                        
 EDRB     IAML     35757.900         3.0                                        
 BOZC     IAML     358 0.100         0.0                                        
 RDO      IAML     358 2.200         0.0                                        
                                                                                

 2020  111  359  3.4 LQ 40.671  27.396  5.0      11 0.2 1.0L                   1
 2020  111  359  3.400  40.67080   27.39570    5.000  0.230                    H
 GAP=147                                                                       E
 Action:ARG 24-11-28 15:26 OP:OBSP STATUS:               ID:20200111035903     I
 GSE2.0:evtype=ke                                                              3
 STAT SP IPHASW D HRMM SECON CODA AMPLIT PERI AZIMU VELO AIN AR TRES W  DIS CAZ7
 GAZK     IAML     359 5.400         1.9                                        
 GAZK     IAML     359 7.600         1.9                                        
 MRMT     IAML     359 7.500         1.9                                        
 MRMT     IAML     359 9.700         1.9                                        
 RKY      IAML     359 7.300         1.9                                        
 RKY      IAML     35910.500         1.9                                        
 KRBG     IAML     35910.500         1.9                                        
 KRBG     IAML     35915.500         1.9                                        
 ERIK     IAML     35917.900         1.9                                        
 UKOP     IAML     35918.900         1.9                                        
 GELI     IAML     35918.800         1.9                                        
 GELI     IAML     35931.000         1.9                                        
 SUSR     IAML     35921.900         1.9                                        
 ENEZ     IAML     35923.200         1.9                                        
 ALN      IAML     35924.500         0.0                                        
 YAYO     IAML     35925.400         1.9                                        
                                                                                

 2020  111  414 45.5 LQ 40.684  27.396  7.4      26 0.3 1.8L                   1
 2020  111  414 45.500  40.68380   27.39630    7.400  0.330                    H
 GAP=45                                                                        E
 Action:ARG 24-11-28 15:26 OP:OBSP STATUS:               ID:20200111041445     I
 GSE2.0:evtype=ke                                                              3
 STAT SP IPHASW D HRMM SECON CODA AMPLIT PERI AZIMU VELO AIN AR TRES W  DIS CAZ7
 GAZK     IAML     41447.400         8.4                                        
 GAZK     IAML     41449.700         8.4                                        
 MRMT     IAML     41448.700         8.4                                        
 MRMT     IAML     41451.600         8.4                                        
 RKY      IAML     41449.300         8.4                                        
 RKY      IAML     41452.300         8.4                                        
 KRBG     IAML     41451.900         8.4                                        
 KRBG     IAML     41456.600         8.4                                        
 TKR      IAML     41452.400         8.4                                        
 BIGA     IAML     41455.000         8.4                                        
 EDC      IAML     41454.900         8.4                                        
 CRLT     IAML     41456.600         8.4                                        
 ERIK     IAML     41458.800         8.4                                        
 CANM     IAML     41459.700         8.4                                        
 UKOP     IAML     415 0.100         8.4                                        
 YENI     IAML     415 0.700         8.4                                        
 GELI     IAML     415 0.500         8.4                                        
 SLVT     IAML     415 2.100         8.4                                        
 SUSR     IAML     415 3.100         8.4                                        
 ENEZ     IAML     415 4.000         8.4                                        
 ALN      IAML     415 6.100         0.0                                        
 YAYO     IAML     415 7.500         8.4                                        
 ARMT     IAML     415 7.600         8.4                                        
 BGKT     IAML     415 7.600         8.4                                        
 MDNY     IAML     415 8.700         8.4                                        
 EZN      IAML     415 8.000         8.4                                        
 GADA     IAML     415 9.500         8.4                                        
 EDRB     IAML     415 9.000         8.4                                        
 BOZC     IAML     41510.500         0.1                                        
 RDO      IAML     41513.100         0.1                                        
                                                                                

 2020  111  420 44.5 LQ 40.701  27.400  8.8      13 0.3 1.1L                   1
 2020  111  420 44.500  40.70100   27.40000    8.800  0.270                    H
 GAP=146                                                                       E
 Action:ARG 24-11-28 15:26 OP:OBSP STATUS:               ID:20200111042044     I
 GSE2.0:evtype=ke                                                              3
 STAT SP IPHASW D HRMM SECON CODA AMPLIT PERI AZIMU VELO AIN AR TRES W  DIS CAZ7
 GAZK     IAML     42046.800         1.9                                        
 GAZK     IAML     42048.700         1.9                                        
 MRMT     IAML     42047.900         1.9                                        
 MRMT     IAML     42050.900         1.9                                        
 RKY      IAML     42048.700         1.9                                        
 RKY      IAML     42051.500         1.9                                        
 KRBG     IAML     42051.400         1.9                                        
 KRBG     IAML     42056.400         1.9                                        
 ERIK     IAML     42057.900         1.9                                        
 ERIK     IAML     421 7.400         1.9                                        
 UKOP     IAML     42059.200         1.9                                        
 UKOP     IAML     421 9.800         1.9                                        
 GELI     IAML     42059.900         1.9                                        
 SUSR     IAML     421 2.700         1.9                                        
 ENEZ     IAML     421 2.700         1.9                                        
 ALN      IAML     421 4.500         0.0                                        
 YAYO     IAML     421 6.400         1.9                                        
 ARMT     IAML     421 6.800         1.9                                        
 RDO      IAML     42111.500         0.0                                        
                                                                                

 2020  111  438 19.1 LQ 40.699  27.405  7.8      30 0.3 2.0L                   1
 2020  111  438 19.100  40.69930   27.40480    7.800  0.280                    H
 GAP=42                                                                        E
 Action:ARG 24-11-28 15:26 OP:OBSP STATUS:               ID:20200111043819     I
 GSE2.0:evtype=ke                                                              3
 STAT SP IPHASW D HRMM SECON CODA AMPLIT PERI AZIMU VELO AIN AR TRES W  DIS CAZ7
 GAZK     IAML     43821.100        14.3                                        
 GAZK     IAML     43823.300        14.3                                        
 MRMT     IAML     43822.900        14.3                                        
 MRMT     IAML     43825.400        14.3                                        
 RKY      IAML     43823.000        14.3                                        
 RKY      IAML     43826.100        14.3                                        
 TKR      IAML     43825.800        14.3                                        
 TKR      IAML     43830.300        14.3                                        
 KRBG     IAML     43825.800        14.3                                        
 BIGA     IAML     43828.700        14.3                                        
 BIGA     IAML     43835.400        14.3                                        
 EDC      IAML     43829.100        14.3                                        
 CRLT     IAML     43829.600        14.3                                        
 ERIK     IAML     43832.800        14.3                                        
 GONE     IAML     43832.800        14.3                                        
 UKOP     IAML     43833.900        14.3                                        
 CANM     IAML     43833.500        14.3                                        
 GELI     IAML     43834.100        14.3                                        
 YENI     IAML     43834.800        14.3                                        
 SLVT     IAML     43835.100        14.3                                        
 SUSR     IAML     43837.100        14.3                                        
 ENEZ     IAML     43837.400        14.3                                        
 ENZZ     IAML     43838.600        14.3                                        
 CTKS     IAML     43838.400        14.3                                        
 CTYL     IAML     43839.600        14.3                                        
 ALN      IAML     43839.600         0.1                                        
 YAYO     IAML     43841.100        14.3                                        
 ARMT     IAML     43841.700        14.3                                        
 BGKT     IAML     43840.500        14.3                                        
 MDNY     IAML     43842.200        14.3                                        
 EZN      IAML     43841.200        14.3                                        
 EDRB     IAML     43842.600        14.3                                        
 GADA     IAML     43843.100        14.3                                        
 BOZC     IAML     43844.400         0.1                                        
 RDO      IAML     43846.800         0.1                                        
                                                                                

 2020  111  439 19.6 LQ 40.702  27.404  8.2      31 0.3 2.2L                   1
 2020  111  439 19.600  40.70150   27.40370    8.200  0.340                    H
 GAP=43                                                                        E
 Action:ARG 24-11-28 15:26 OP:OBSP STATUS:               ID:20200111043919     I
 GSE2.0:evtype=ke                                                              3
 STAT SP IPHASW D HRMM SECON CODA AMPLIT PERI AZIMU VELO AIN AR TRES W  DIS CAZ7
 GAZK     IAML     43921.800        18.3                                        
 GAZK     IAML     43923.800        18.3                                        
 MRMT     IAML     43923.300        18.3                                        
 MRMT     IAML     43925.900        18.3                                        
 RKY      IAML     43923.600        18.3                                        
 RKY      IAML     43926.500        18.3                                        
 TKR      IAML     43926.300        18.3                                        
 TKR      IAML     43930.800        18.3                                        
 KRBG     IAML     43926.400        18.3                                        
 KRBG     IAML     43931.600        18.3                                        
 BIGA     IAML     43929.300        18.3                                        
 CRLT     IAML     43930.500        18.3                                        
 EDC      IAML     43929.400        18.3                                        
 ERIK     IAML     43933.100        18.3                                        
 GONE     IAML     43933.900        18.3                                        
 UKOP     IAML     43934.400        18.3                                        
 CANM     IAML     43933.600        18.3                                        
 GELI     IAML     43935.300        18.3                                        
 YENI     IAML     43934.400        18.3                                        
 SLVT     IAML     43936.000        18.3                                        
 SUSR     IAML     43937.900        18.3                                        
 ENEZ     IAML     43938.200        18.3                                        
 ENZZ     IAML     43939.000        18.3                                        
 CTKS     IAML     43938.900        18.3                                        
 CTYL     IAML     43940.100        18.3                                        
 ALN      IAML     43939.900         0.1                                        
 YAYO     IAML     43941.900        18.3                                        
 ARMT     IAML     43942.200        18.3                                        
 BGKT     IAML     43941.100        18.3                                        
 MDNY     IAML     43942.600        18.3                                        
 EZN      IAML     43942.900        18.3                                        
 EZNE     IAML     43943.400        18.3                                        
 EDRB     IAML     43942.900        18.3                                        
 GADA     IAML     43943.700        18.3                                        
 BOZC     IAML     43945.100         0.2                                        
 RDO      IAML     43946.900         0.1                                        
                                                                                

