 2020  111  337  4.0 LQ 40.695  27.382  5.4      20 0.2 1.2L                   1
 2020  111  337  4.0    40.69470   27.38220    5.400  0.190                    H
 GAP=75                                                                        E
 Action:ARG 24-11-28 15:26 OP:OBSP STATUS:               ID:20200111033704     I
 GSE2.0:evtype=ke                                                              3
 STAT SP IPHASW D HRMM SECON CODA AMPLIT PERI AZIMU VELO AIN AR TRES W  DIS CAZ7
 GAZK     IAML     337 5.600         3.0                                        
 GAZK     IAML     337 7.800         3.0                                        
 RKY      IAML     337 7.600         3.0                                        
 RKY      IAML     33710.500         3.0                                        
 MRMT     IAML     337 7.900         3.0                                        
 KRBG     IAML     33710.500         3.0                                        
 KRBG     IAML     33715.400         3.0                                        
 TKR      IAML     33710.700         3.0                                        
 EDC      IAML     33714.300         3.0                                        
 ERIK     IAML     33716.900         3.0                                        
 UKOP     IAML     33718.200         3.0                                        
 CANM     IAML     33718.100         3.0                                        
 GELI     IAML     33718.700         3.0                                        
 SUSR     IAML     33722.100         3.0                                        
 ENEZ     IAML     33722.400         3.0                                        
 ALN      IAML     33724.200         0.0                                        
 BALB     IAML     33725.900         3.0                                        
 YAYO     IAML     33725.700         3.0                                        
 ARMT     IAML     33726.200         3.0                                        
 EZN      IAML     33727.500         3.0                                        
 GADA     IAML     33728.000         3.0                                        
 EDRB     IAML     33728.300         3.0                                        
 BOZC     IAML     33729.600         0.0                                        
                                                                                

 2020  111  339 55.6 LQ 40.694  27.412  8.9      23 0.3 1.6L                   1
 2020  111  339 55.600  40.69450   27.41220    8.900  0.270                    H
 GAP=48                                                                        E
 Action:ARG 24-11-28 15:26 OP:OBSP STATUS:               ID:20200111033955     I
 GSE2.0:evtype=ke                                                              3
 STAT SP IPHASW D HRMM SECON CODA AMPLIT PERI AZIMU VELO AIN AR TRES W  DIS CAZ7
 GAZK     IAML     33957.900         5.3                                        
 GAZK     IAML     340 0.000         5.3                                        
 MRMT     IAML     33958.900         5.3                                        
 MRMT     IAML     340 2.200         5.3                                        
 RKY      IAML     33959.900         5.3                                        
 RKY      IAML     340 2.800         5.3                                        
 TKR      IAML     340 2.500         5.3                                        
 KRBG     IAML     340 2.500         5.3                                        
 KRBG     IAML     340 7.800         5.3                                        
 EDC      IAML     340 5.700         5.3                                        
 EDC      IAML     34013.000         5.3                                        
 GONE     IAML     340 8.500         5.3                                        
 ERIK     IAML     340 9.300         5.3                                        
 UKOP     IAML     34010.300         5.3                                        
 CANM     IAML     34010.200         5.3                                        
 YENI     IAML     340 9.900         5.3                                        
 GELI     IAML     34011.300         5.3                                        
 SLVT     IAML     34011.800         5.3                                        
 SUSR     IAML     34014.300         5.3                                        
 ENEZ     IAML     34014.800         5.3                                        
 ALN      IAML     34016.400         0.0                                        
 YAYO     IAML     34017.400         5.3                                        
 ARMT     IAML     34017.700         5.3                                        
 EZN      IAML     34018.600         5.3                                        
 EDRB     IAML     34019.500         5.3                                        
 GADA     IAML     34019.700         5.3                                        
 BOZC     IAML     34020.900         0.1                                        
 RDO      IAML     34023.000         0.0                                        
                                                                                

 2020  111  340 26.4 LQ 40.701  27.422  9.2      20 0.2 1.5L                   1
 2020  111  340 26.400  40.70120   27.42200    9.200  0.200                    H
 GAP=48                                                                        E
 Action:ARG 24-11-28 15:26 OP:OBSP STATUS:               ID:20200111034026     I
 GSE2.0:evtype=ke                                                              3
 STAT SP IPHASW D HRMM SECON CODA AMPLIT PERI AZIMU VELO AIN AR TRES W  DIS CAZ7
 GAZK     IAML     34029.000         5.3                                        
 GAZK     IAML     34031.100         5.3                                        
 RKY      IAML     34030.900         5.3                                        
 RKY      IAML     34033.800         5.3                                        
 TKR      IAML     34032.800         5.3                                        
 TKR      IAML     34037.700         5.3                                        
 KRBG     IAML     34033.400         5.3                                        
 KRBG     IAML     34039.000         5.3                                        
 EDC      IAML     34036.300         5.3                                        
 GONE     IAML     34039.900         5.3                                        
 ERIK     IAML     34040.900         5.3                                        
 UKOP     IAML     34040.200         5.3                                        
 CANM     IAML     34040.900         5.3                                        
 GELI     IAML     34041.700         5.3                                        
 SLVT     IAML     34041.800         5.3                                        
 SUSR     IAML     34043.900         5.3                                        
 ENEZ     IAML     34045.200         5.3                                        
 ALN      IAML     34047.100         0.0                                        
 ARMT     IAML     34048.300         5.3                                        
 YAYO     IAML     34048.400         5.3                                        
 EZN      IAML     34049.600         5.3                                        
 EDRB     IAML     34050.400         5.3                                        
 GADA     IAML     34050.600         5.3                                        
 BOZC     IAML     34051.900         0.0                                        
                                                                                

 2020  111  343 27.7 LQ 40.684  27.323  6.8      24 0.2 1.4L                   1
 2020  111  343 27.700  40.68380   27.32330    6.800  0.200                    H
 GAP=45                                                                        E
 Action:ARG 24-11-28 15:26 OP:OBSP STATUS:               ID:20200111034327     I
 GSE2.0:evtype=ke                                                              3
 STAT SP IPHASW D HRMM SECON CODA AMPLIT PERI AZIMU VELO AIN AR TRES W  DIS CAZ7
 GAZK     IAML     34329.400         3.3                                        
 GAZK     IAML     34331.400         3.3                                        
 RKY      IAML     34330.900         3.3                                        
 MRMT     IAML     34332.600         3.3                                        
 KRBG     IAML     34333.900         3.3                                        
 KRBG     IAML     34338.800         3.3                                        
 TKR      IAML     34334.900         3.3                                        
 BIGA     IAML     34336.500         3.3                                        
 EDC      IAML     34338.700         3.3                                        
 ERIK     IAML     34340.400         3.3                                        
 UKOP     IAML     34341.500         3.3                                        
 GONE     IAML     34341.200         3.3                                        
 CANM     IAML     34341.300         3.3                                        
 GELI     IAML     34341.900         3.3                                        
 YENI     IAML     34342.500         3.3                                        
 SLVT     IAML     34345.000         3.3                                        
 ENEZ     IAML     34345.200         3.3                                        
 SUSR     IAML     34346.100         3.3                                        
 ALN      IAML     34347.300         0.0                                        
 YAYO     IAML     34349.000         3.3                                        
 BALB     IAML     34349.400         3.3                                        
 EZN      IAML     34349.900         3.3                                        
 ARMT     IAML     34350.800         3.3                                        
 GADA     IAML     34350.700         3.3                                        
 EDRB     IAML     34350.700         3.3                                        
 BOZC     IAML     34352.300         0.0                                        
                                                                                

 2020  111  343 46.0 LQ 40.705  27.416  9.6       6 0.1 1.5L                   1
 2020  111  343 46.0    40.70470   27.41570    9.600  0.090                    H
 GAP=184                                                                       E
 Action:ARG 24-11-28 15:26 OP:OBSP STATUS:               ID:20200111034346     I
 GSE2.0:evtype=ke                                                              3
 STAT SP IPHASW D HRMM SECON CODA AMPLIT PERI AZIMU VELO AIN AR TRES W  DIS CAZ7
 GAZK     IAML     34348.600         4.2                                        
 GAZK     IAML     34350.600         4.2                                        
 MRMT     IAML     34349.900         4.2                                        
 MRMT     IAML     34352.700         4.2                                        
 RKY      IAML     34350.400         4.2                                        
 RKY      IAML     34353.400         4.2                                        
 KRBG     IAML     34352.800         4.2                                        
 KRBG     IAML     34357.800         4.2                                        
 EDC      IAML     34355.900         4.2                                        
 EDC      IAML     344 3.600         4.2                                        
 GELI     IAML     344 1.400         4.2                                        
 GELI     IAML     34412.900         4.2                                        
                                                                                

 2020  111  344 30.6 LQ 40.715  27.381  5.9      23 0.3 1.4L                   1
 2020  111  344 30.600  40.71450   27.38070    5.900  0.270                    H
 GAP=47                                                                        E
 Action:ARG 24-11-28 15:26 OP:OBSP STATUS:               ID:20200111034430     I
 GSE2.0:evtype=ke                                                              3
 STAT SP IPHASW D HRMM SECON CODA AMPLIT PERI AZIMU VELO AIN AR TRES W  DIS CAZ7
 GAZK     IAML     34432.400         2.6                                        
 GAZK     IAML     34434.200         2.6                                        
 RKY      IAML     34434.200         2.6                                        
 RKY      IAML     34437.000         2.6                                        
 MRMT     IAML     34435.600         2.6                                        
 TKR      IAML     34436.600         2.6                                        
 KRBG     IAML     34436.800         2.6                                        
 EDC      IAML     34441.200         2.6                                        
 LAP      IAML     34442.300         2.6                                        
 ERIK     IAML     34444.100         2.6                                        
 ERIK     IAML     34453.200         2.6                                        
 UKOP     IAML     34444.400         2.6                                        
 CANM     IAML     34444.400         2.6                                        
 GELI     IAML     34445.800         2.6                                        
 YENI     IAML     34446.100         2.6                                        
 SLVT     IAML     34446.500         2.6                                        
 SUSR     IAML     34449.000         2.6                                        
 ENEZ     IAML     34449.200         2.6                                        
 ALN      IAML     34450.300         0.0                                        
 BALB     IAML     34452.700         2.6                                        
 YAYO     IAML     34452.700         2.6                                        
 ARMT     IAML     34452.900         2.6                                        
 EZN      IAML     34453.700         2.6                                        
 EDRB     IAML     34454.300         2.6                                        
 GADA     IAML     34454.900         2.6                                        
 BOZC     IAML     34456.300         0.0                                        
                                                                                

 2020  111  345 49.5 LQ 40.685  27.399  7.2      26 0.2 1.6L                   1
 2020  111  345 49.500  40.68550   27.39930    7.200  0.240                    H
 GAP=42                                                                        E
 Action:ARG 24-11-28 15:26 OP:OBSP STATUS:               ID:20200111034549     I
 GSE2.0:evtype=ke                                                              3
 STAT SP IPHASW D HRMM SECON CODA AMPLIT PERI AZIMU VELO AIN AR TRES W  DIS CAZ7
 GAZK     IAML     34551.800         6.0                                        
 GAZK     IAML     34553.700         6.0                                        
 MRMT     IAML     34553.200         6.0                                        
 MRMT     IAML     34555.900         6.0                                        
 RKY      IAML     34553.500         6.0                                        
 RKY      IAML     34556.500         6.0                                        
 KRBG     IAML     34555.900         6.0                                        
 KRBG     IAML     346 1.300         6.0                                        
 TKR      IAML     34556.300         6.0                                        
 BIGA     IAML     34558.700         6.0                                        
 EDC      IAML     34559.200         6.0                                        
 CRLT     IAML     346 0.000         6.0                                        
 ERIK     IAML     346 3.100         6.0                                        
 GONE     IAML     346 2.400         6.0                                        
 CANM     IAML     346 3.900         6.0                                        
 UKOP     IAML     346 4.000         6.0                                        
 YENI     IAML     346 3.900         6.0                                        
 GELI     IAML     346 4.300         6.0                                        
 SLVT     IAML     346 5.800         6.0                                        
 SUSR     IAML     346 7.600         6.0                                        
 ENEZ     IAML     346 7.900         6.0                                        
 ALN      IAML     346 9.900         0.0                                        
 YAYO     IAML     34611.300         6.0                                        
 ARMT     IAML     34611.800         6.0                                        
 BGKT     IAML     34612.000         6.0                                        
 EZN      IAML     34611.900         6.0                                        
 GADA     IAML     34613.600         6.0                                        
 EDRB     IAML     34613.000         6.0                                        
 BOZC     IAML     34614.900         0.0                                        
 RDO      IAML     34616.900         0.0                                        
                                                                                

