 2020  111  442 50.3 LQ 40.702  27.409  8.6      28 0.3 1.7L                   1
 2020  111  442 50.300  40.70230   27.40870    8.600  0.320                    H
 GAP=48                                                                        E
 Action:ARG 24-11-28 15:26 OP:OBSP STATUS:               ID:20200111044250     I
 GSE2.0:evtype=ke                                                              3
 STAT SP IPHASW D HRMM SECON CODA AMPLIT PERI AZIMU VELO AIN AR TRES W  DIS CAZ7
 GAZK     IAML     44252.600         7.8                                        
 GAZK     IAML     44254.600         7.8                                        
 MRMT     IAML     44254.100         7.8                                        
 MRMT     IAML     44256.700         7.8                                        
 RKY      IAML     44254.400         7.8                                        
 RKY      IAML     44257.300         7.8                                        
 TKR      IAML     44257.200         7.8                                        
 TKR      IAML     443 1.400         7.8                                        
 KRBG     IAML     44257.100         7.8                                        
 BIGA     IAML     443 0.100         7.8                                        
 CRLT     IAML     443 1.200         7.8                                        
 EDC      IAML     443 0.000         7.8                                        
 EDC      IAML     443 7.800         7.8                                        
 ERIK     IAML     443 4.300         7.8                                        
 GONE     IAML     443 3.700         7.8                                        
 UKOP     IAML     443 4.300         7.8                                        
 CANM     IAML     443 5.000         7.8                                        
 GELI     IAML     443 6.500         7.8                                        
 YENI     IAML     443 6.300         7.8                                        
 SLVT     IAML     443 5.900         7.8                                        
 SUSR     IAML     443 8.200         7.8                                        
 ENEZ     IAML     443 9.600         7.8                                        
 ENZZ     IAML     443 9.300         7.8                                        
 CTYL     IAML     44310.800         7.8                                        
 ALN      IAML     44310.500         0.0                                        
 ARMT     IAML     44312.500         7.8                                        
 YAYO     IAML     44312.700         7.8                                        
 MDNY     IAML     44313.400         7.8                                        
 EZN      IAML     44312.800         7.8                                        
 EDRB     IAML     44314.200         7.8                                        
 GADA     IAML     44314.300         7.8                                        
 BOZC     IAML     44315.500         0.1                                        
 RDO      IAML     44317.500         0.1                                        
                                                                                

 2020  111  5 9 12.3 LQ 40.700  27.412  8.9      19 0.2 2.0L                   1
 2020  111  5 9 12.300  40.70050   27.41180    8.900  0.160                    H
 GAP=83                                                                        E
 Action:ARG 24-11-28 15:26 OP:OBSP STATUS:               ID:20200111050912     I
 GSE2.0:evtype=ke                                                              3
 STAT SP IPHASW D HRMM SECON CODA AMPLIT PERI AZIMU VELO AIN AR TRES W  DIS CAZ7
 GAZK     IAML     5 914.700        18.1                                        
 GAZK     IAML     5 916.700        18.1                                        
 MRMT     IAML     5 915.900        18.1                                        
 MRMT     IAML     5 918.900        18.1                                        
 RKY      IAML     5 916.400        18.1                                        
 RKY      IAML     5 919.500        18.1                                        
 KRBG     IAML     5 919.300        18.1                                        
 KRBG     IAML     5 924.000        18.1                                        
 BIGA     IAML     5 922.000        18.1                                        
 EDC      IAML     5 922.200        18.1                                        
 CRLT     IAML     5 923.000        18.1                                        
 ERIK     IAML     5 925.900        18.1                                        
 GONE     IAML     5 925.900        18.1                                        
 UKOP     IAML     5 926.700        18.1                                        
 CANM     IAML     5 926.900        18.1                                        
 GELI     IAML     5 927.300        18.1                                        
 SLVT     IAML     5 928.300        18.1                                        
 SUSR     IAML     5 930.500        18.1                                        
 ENEZ     IAML     5 931.300        18.1                                        
 ALN      IAML     5 932.800         0.1                                        
 YAYO     IAML     5 934.000        18.1                                        
 EZN      IAML     5 935.200        18.1                                        
 GADA     IAML     5 936.400        18.1                                        
                                                                                

 2020  111  512 17.0 LQ 40.713  27.421 11.4      19 0.1 2.4L                   1
 2020  111  512 17.0    40.71270   27.42120   11.400  0.150                    H
 GAP=100                                                                       E
 Action:ARG 24-11-28 15:26 OP:OBSP STATUS:               ID:20200111051217     I
 GSE2.0:evtype=ke                                                              3
 STAT SP IPHASW D HRMM SECON CODA AMPLIT PERI AZIMU VELO AIN AR TRES W  DIS CAZ7
 GAZK     IAML     51219.700        37.6                                        
 GAZK     IAML     51221.700        37.6                                        
 MRMT     IAML     51220.900        37.6                                        
 MRMT     IAML     51223.900        37.6                                        
 RKY      IAML     51221.400        37.6                                        
 RKY      IAML     51224.500        37.6                                        
 TKR      IAML     51223.200        37.6                                        
 KRBG     IAML     51224.500        37.6                                        
 KRBG     IAML     51229.500        37.6                                        
 BIGA     IAML     51227.000        37.6                                        
 BIGA     IAML     51234.000        37.6                                        
 CRLT     IAML     51227.200        37.6                                        
 EDC      IAML     51227.300        37.6                                        
 EDC      IAML     51234.600        37.6                                        
 ERIK     IAML     51230.900        37.6                                        
 GONE     IAML     51230.900        37.6                                        
 UKOP     IAML     51231.900        37.6                                        
 CANM     IAML     51231.900        37.6                                        
 GELI     IAML     51232.600        37.6                                        
 SUSR     IAML     51234.800        37.6                                        
 ENEZ     IAML     51236.100        37.6                                        
 ALN      IAML     51237.800         0.2                                        
 YAYO     IAML     51238.900        37.6                                        
 EZN      IAML     51240.100        37.6                                        
 GADA     IAML     51240.800        37.6                                        
                                                                                

 2020  111  515 26.2 LQ 40.700  27.403 10.4      35 0.3 3.1L                   1
 2020  111  515 26.200  40.70050   27.40300   10.400  0.300                    H
 GAP=29                                                                        E
 Action:ARG 24-11-28 15:26 OP:OBSP STATUS:               ID:20200111051526     I
 GSE2.0:evtype=ke                                                              3
 STAT SP IPHASW D HRMM SECON CODA AMPLIT PERI AZIMU VELO AIN AR TRES W  DIS CAZ7
 GAZK     IAML     51528.600       128.0                                        
 GAZK     IAML     51530.700       128.0                                        
 MRMT     IAML     51529.800       128.0                                        
 MRMT     IAML     51532.700       128.0                                        
 RKY      IAML     51530.300       128.0                                        
 RKY      IAML     51533.300       128.0                                        
 TKR      IAML     51532.900       128.0                                        
 TKR      IAML     51537.600       128.0                                        
 KRBG     IAML     51533.400       128.0                                        
 KRBG     IAML     51538.600       128.0                                        
 BIGA     IAML     51535.900       128.0                                        
 CRLT     IAML     51536.300       128.0                                        
 EDC      IAML     51536.300       128.0                                        
 BOTS     IAML     51537.000       128.0                                        
 ERIK     IAML     51539.500       128.0                                        
 GONE     IAML     51540.100       128.0                                        
 UKOP     IAML     51540.900       128.0                                        
 CANM     IAML     51540.800       128.0                                        
 GELI     IAML     51540.900       128.0                                        
 YENI     IAML     51541.300       128.0                                        
 SLVT     IAML     51542.400       128.0                                        
 SUSR     IAML     51544.500       128.0                                        
 SINB     IAML     51543.700       128.0                                        
 PHSR     IAML     51544.700       128.0                                        
 ENEZ     IAML     51544.800       128.0                                        
 ENZZ     IAML     51545.000       128.0                                        
 CTKS     IAML     51545.600       128.0                                        
 YKBL     IAML     51546.400       128.0                                        
 CTYL     IAML     51546.500       128.0                                        
 ALN      IAML     51546.700         1.0                                        
 YAYO     IAML     51547.700       128.0                                        
 ARMT     IAML     51548.900       128.0                                        
 BGKT     IAML     51547.700       128.0                                        
 MDNY     IAML     51548.800       128.0                                        
 EZN      IAML     51548.300       128.0                                        
 EZNE     IAML     51549.600       128.0                                        
 EDRB     IAML     51549.800       128.0                                        
 GADA     IAML     51549.600       128.0                                        
 BOZC     IAML     51551.400         1.4                                        
 RDO      IAML     51553.400         1.2                                        
                                                                                

 2020  111  525 22.9 LQ 40.737  27.444  8.9      20 0.2 1.4L                   1
 2020  111  525 22.900  40.73680   27.44350    8.900  0.220                    H
 GAP=75                                                                        E
 Action:ARG 24-11-28 15:26 OP:OBSP STATUS:               ID:20200111052522     I
 GSE2.0:evtype=ke                                                              3
 STAT SP IPHASW D HRMM SECON CODA AMPLIT PERI AZIMU VELO AIN AR TRES W  DIS CAZ7
 GAZK     IAML     52525.700         4.1                                        
 GAZK     IAML     52527.800         4.1                                        
 MRMT     IAML     52526.900         4.1                                        
 MRMT     IAML     52530.000         4.1                                        
 RKY      IAML     52527.500         4.1                                        
 KRBG     IAML     52530.300         4.1                                        
 KRBG     IAML     52535.700         4.1                                        
 EDC      IAML     52533.500         4.1                                        
 BIGA     IAML     52533.200         4.1                                        
 LAP      IAML     52535.500         4.1                                        
 ERIK     IAML     52536.600         4.1                                        
 UKOP     IAML     52537.200         4.1                                        
 SLVT     IAML     52537.700         4.1                                        
 CANM     IAML     52536.600         4.1                                        
 GELI     IAML     52538.700         4.1                                        
 SUSR     IAML     52540.700         4.1                                        
 ENEZ     IAML     52542.100         4.1                                        
 ALN      IAML     52544.000         0.0                                        
 ARMT     IAML     52544.000         4.1                                        
 BALB     IAML     52545.300         4.1                                        
 YAYO     IAML     52545.600         4.1                                        
 EDRB     IAML     52546.700         4.1                                        
 EZN      IAML     52546.800         4.1                                        
                                                                                

 2020  111  527 39.7 LQ 40.709  27.394 10.0      10 0.1 1.1L                   1
 2020  111  527 39.700  40.70880   27.39380   10.000  0.130                    H
 GAP=177                                                                       E
 Action:ARG 24-11-28 15:26 OP:OBSP STATUS:               ID:20200111052739     I
 GSE2.0:evtype=ke                                                              3
 STAT SP IPHASW D HRMM SECON CODA AMPLIT PERI AZIMU VELO AIN AR TRES W  DIS CAZ7
 GAZK     IAML     52741.900         1.3                                        
 GAZK     IAML     52744.000         1.3                                        
 RKY      IAML     52743.800         1.3                                        
 RKY      IAML     52746.600         1.3                                        
 MRMT     IAML     52743.800         1.3                                        
 KRBG     IAML     52746.600         1.3                                        
 KRBG     IAML     52751.600         1.3                                        
 ERIK     IAML     52753.200         1.3                                        
 ERIK     IAML     528 2.700         1.3                                        
 GELI     IAML     52755.100         1.3                                        
 SUSR     IAML     52757.700         1.3                                        
 ENEZ     IAML     52758.500         1.3                                        
 ALN      IAML     52759.900         0.0                                        
 YAYO     IAML     528 1.800         1.3                                        
                                                                                

 2020  111  533 57.3 LQ 40.695  27.398  8.0      31 0.2 2.8L                   1
 2020  111  533 57.300  40.69530   27.39850    8.000  0.210                    H
 GAP=43                                                                        E
 Action:ARG 24-11-28 15:26 OP:OBSP STATUS:               ID:20200111053357     I
 GSE2.0:evtype=ke                                                              3
 STAT SP IPHASW D HRMM SECON CODA AMPLIT PERI AZIMU VELO AIN AR TRES W  DIS CAZ7
 GAZK     IAML     53359.700       111.1                                        
 GAZK     IAML     534 1.700       111.1                                        
 MRMT     IAML     534 0.900       111.1                                        
 MRMT     IAML     534 3.900       111.1                                        
 RKY      IAML     534 1.400       111.1                                        
 RKY      IAML     534 4.300       111.1                                        
 KRBG     IAML     534 4.500       111.1                                        
 KRBG     IAML     534 9.100       111.1                                        
 TKR      IAML     534 4.100       111.1                                        
 TKR      IAML     534 8.700       111.1                                        
 BIGA     IAML     534 6.800       111.1                                        
 EDC      IAML     534 7.400       111.1                                        
 EDC      IAML     53414.700       111.1                                        
 CRLT     IAML     534 8.300       111.1                                        
 ERIK     IAML     53410.400       111.1                                        
 ERIK     IAML     53420.200       111.1                                        
 GONE     IAML     53411.100       111.1                                        
 UKOP     IAML     53411.900       111.1                                        
 CANM     IAML     53411.900       111.1                                        
 GELI     IAML     53412.300       111.1                                        
 YENI     IAML     53412.700       111.1                                        
 SLVT     IAML     53413.400       111.1                                        
 SUSR     IAML     53414.900       111.1                                        
 ENEZ     IAML     53415.900       111.1                                        
 ENZZ     IAML     53416.200       111.1                                        
 CTKS     IAML     53416.700       111.1                                        
 CTYL     IAML     53417.600       111.1                                        
 ALN      IAML     53417.500         0.5                                        
 YAYO     IAML     53419.000       111.1                                        
 ARMT     IAML     53419.600       111.1                                        
 BGKT     IAML     53419.800       111.1                                        
 MDNY     IAML     53420.200       111.1                                        
 EZN      IAML     53420.100       111.1                                        
 EZNE     IAML     53421.100       111.1                                        
 GADA     IAML     53421.200       111.1                                        
 EDRB     IAML     53421.200       111.1                                        
 BOZC     IAML     53422.500         0.8                                        
 RDO      IAML     53424.800         0.7                                        
                                                                                

